,SEARCHVAL,BLK_NO,ROAD_NAME,BUILDING,ADDRESS,POSTAL,X,Y,LATITUDE,LONGITUDE,Name
0,BUKIT PANJANG GOVERNMENT HIGH SCHOOL,7,CHOA CHU KANG AVENUE 4,BUKIT PANJANG GOVERNMENT HIGH SCHOOL,7 CHOA CHU KANG AVENUE 4 BUKIT PANJANG GOVERNMENT HIGH SCHOOL SINGAPORE 689809,689809,17432.4458359294,40467.0724023171,1.38224243360043,103.738361221869,Bukit Panjang Government High School
1,HWA CHONG INSTITUTION (AUDITORIUM),661,BUKIT TIMAH ROAD,HWA CHONG INSTITUTION (AUDITORIUM),661 BUKIT TIMAH ROAD HWA CHONG INSTITUTION (AUDITORIUM) SINGAPORE 269734,269734,24929.7337209778,34205.2982177679,1.32561493280909,103.805730574839,Hwa Chong Institution
2,HWA CHONG INSTITUTION (SCIENCE RESEARCH CENTRE),661,BUKIT TIMAH ROAD,HWA CHONG INSTITUTION (SCIENCE RESEARCH CENTRE),661 BUKIT TIMAH ROAD HWA CHONG INSTITUTION (SCIENCE RESEARCH CENTRE) SINGAPORE 269734,269734,24794.2409987506,34152.7572960891,1.32513975740581,103.804513104992,Hwa Chong Institution
3,HWA CHONG INSTITUTION,661,BUKIT TIMAH ROAD,HWA CHONG INSTITUTION,661 BUKIT TIMAH ROAD HWA CHONG INSTITUTION SINGAPORE 269734,269734,24926.8156149359,34131.5293299966,1.3249477928719,103.805704361472,Hwa Chong Institution
4,HWA CHONG INSTITUTION (ONG TENG CHEONG SALT CENTRE),661,BUKIT TIMAH ROAD,HWA CHONG INSTITUTION (ONG TENG CHEONG SALT CENTRE),661 BUKIT TIMAH ROAD HWA CHONG INSTITUTION (ONG TENG CHEONG SALT CENTRE) SINGAPORE 269734,269734,24448.348166584,34416.4159513339,1.32752415425611,103.80140504104,Hwa Chong Institution
5,HWA CHONG INSTITUTION,673,BUKIT TIMAH ROAD,HWA CHONG INSTITUTION,673 BUKIT TIMAH ROAD HWA CHONG INSTITUTION SINGAPORE 269735,269735,24375.1352411378,34235.5739198215,1.32588867455552,103.800747204253,Hwa Chong Institution
6,HWA CHONG INSTITUTION BOARDING SCHOOL,673,BUKIT TIMAH ROAD,HWA CHONG INSTITUTION BOARDING SCHOOL,673 BUKIT TIMAH ROAD HWA CHONG INSTITUTION BOARDING SCHOOL SINGAPORE 269735,269735,24378.6821040055,34179.150887087,1.32537840511668,103.8007790814,Hwa Chong Institution
7,KRANJI SECONDARY SCHOOL,61,CHOA CHU KANG STREET 51,KRANJI SECONDARY SCHOOL,61 CHOA CHU KANG STREET 51 KRANJI SECONDARY SCHOOL SINGAPORE 689333,689333,17747.3609606959,41330.5036858637,1.39005109871311,103.741190664845,Kranji Secondary School
8,SENGKANG SECONDARY SCHOOL,10,COMPASSVALE LANE,SENGKANG SECONDARY SCHOOL,10 COMPASSVALE LANE SENGKANG SECONDARY SCHOOL SINGAPORE 545090,545090,35238.8912931653,40940.0948522743,1.38652129134849,103.898365549236,Sengkang Secondary School
9,BOWEN SECONDARY SCHOOL,2,LORONG NAPIRI,BOWEN SECONDARY SCHOOL,2 LORONG NAPIRI BOWEN SECONDARY SCHOOL SINGAPORE 547529,547529,32934.6156324307,39153.0014795549,1.37035994436209,103.877659577677,Bowen Secondary School
10,GREENDALE SECONDARY SCHOOL,51,EDGEDALE PLAINS,GREENDALE SECONDARY SCHOOL,51 EDGEDALE PLAINS GREENDALE SECONDARY SCHOOL SINGAPORE 828866,828866,36722.8223570501,42094.4224047884,1.39696019936894,103.91170014084,Greendale Secondary School
11,QUEENSWAY SECONDARY SCHOOL,2A,MARGARET DRIVE,QUEENSWAY SECONDARY SCHOOL,2A MARGARET DRIVE QUEENSWAY SECONDARY SCHOOL SINGAPORE 149295,149295,24537.5928928228,31397.561654076,1.30022271592188,103.802207291625,Queensway Secondary School
12,QUEENSTOWN SECONDARY SCHOOL,1,STRATHMORE ROAD,QUEENSTOWN SECONDARY SCHOOL,1 STRATHMORE ROAD QUEENSTOWN SECONDARY SCHOOL SINGAPORE 148800,148800,25759.9730125098,30656.5376077667,1.29352126774652,103.813190980055,Queenstown Secondary School
13,BLANGAH RISE PRIMARY SCHOOL,91,TELOK BLANGAH HEIGHTS,BLANGAH RISE PRIMARY SCHOOL,91 TELOK BLANGAH HEIGHTS BLANGAH RISE PRIMARY SCHOOL SINGAPORE 109100,109100,25252.1938973861,28732.4526119996,1.27612047924037,103.808628535239,Blangah Rise Primary School
14,SHG STUDENT CARE (BLANGAH RISE PRIMARY SCHOOL),91,TELOK BLANGAH HEIGHTS,SHG STUDENT CARE (BLANGAH RISE PRIMARY SCHOOL),91 TELOK BLANGAH HEIGHTS SHG STUDENT CARE (BLANGAH RISE PRIMARY SCHOOL) SINGAPORE 109100,109100,25250.4834536267,28735.1893522833,1.27614522920998,103.80861316604,Blangah Rise Primary School
15,HOLY INNOCENTS' PRIMARY SCHOOL,5,LORONG LOW KOON,HOLY INNOCENTS' PRIMARY SCHOOL,5 LORONG LOW KOON HOLY INNOCENTS' PRIMARY SCHOOL SINGAPORE 536451,536451,34765.9036816582,38774.6943912152,1.36693830877349,103.894114899795,Holy Innocents' Primary School
16,JURONG WEST PRIMARY SCHOOL,30,JURONG WEST STREET 61,JURONG WEST PRIMARY SCHOOL,30 JURONG WEST STREET 61 JURONG WEST PRIMARY SCHOOL SINGAPORE 648368,648368,13029.9245329089,35705.1165225543,1.33917519796104,103.698803732244,Jurong West Primary School
17,JURONG WEST SECONDARY SCHOOL,61,JURONG WEST STREET 65,JURONG WEST SECONDARY SCHOOL,61 JURONG WEST STREET 65 JURONG WEST SECONDARY SCHOOL SINGAPORE 648348,648348,13396.6197330486,35271.7690127064,1.33525634688323,103.702098904443,Jurong West Secondary School
18,KEMING PRIMARY SCHOOL,90,BUKIT BATOK EAST AVENUE 6,KEMING PRIMARY SCHOOL,90 BUKIT BATOK EAST AVENUE 6 KEMING PRIMARY SCHOOL SINGAPORE 659762,659762,19445.3031655131,36407.3561431039,1.34552849960874,103.756449399351,Keming Primary School
19,KNOWLEDGE PARK EDUCARE PTE LTD (KEMING PRIMARY SCHOOL),90,BUKIT BATOK EAST AVENUE 6,KNOWLEDGE PARK EDUCARE PTE LTD (KEMING PRIMARY SCHOOL),90 BUKIT BATOK EAST AVENUE 6 KNOWLEDGE PARK EDUCARE PTE LTD (KEMING PRIMARY SCHOOL) SINGAPORE 659762,659762,19386.7443935787,36355.9404942542,1.34506349843091,103.75592322797,Keming Primary School
20,MORNING STAR COMMUNITY SERVICES (ST JOSEPH'S INSTITUTION JUNIOR),3,ESSEX ROAD,MORNING STAR COMMUNITY SERVICES (ST JOSEPH'S INSTITUTION JUNIOR),3 ESSEX ROAD MORNING STAR COMMUNITY SERVICES (ST JOSEPH'S INSTITUTION JUNIOR) SINGAPORE 309331,309331,29370.5121512143,33342.7815418858,1.31781476118551,103.845633334522,St. Joseph's Institution
21,SAINT JOSEPH'S INSTITUTION JUNIOR,3,ESSEX ROAD,SAINT JOSEPH'S INSTITUTION JUNIOR,3 ESSEX ROAD SAINT JOSEPH'S INSTITUTION JUNIOR SINGAPORE 309331,309331,29368.130666255,33333.2553599048,1.31772860986913,103.845611935235,St. Joseph's Institution
22,FORMER SAINT JOSEPH'S INSTITUTION,71,BRAS BASAH ROAD,FORMER SAINT JOSEPH'S INSTITUTION,71 BRAS BASAH ROAD FORMER SAINT JOSEPH'S INSTITUTION SINGAPORE 189555,189555,29970.4099678984,31069.6797856204,1.29725759853987,103.851023580389,St. Joseph's Institution
23,SAINT JOSEPH'S INSTITUTION INTERNATIONAL,500,THOMSON ROAD,SAINT JOSEPH'S INSTITUTION INTERNATIONAL,500 THOMSON ROAD SAINT JOSEPH'S INSTITUTION INTERNATIONAL SINGAPORE 298133,298133,28721.6545996116,34969.6175334584,1.3325273123293,103.839803054458,St. Joseph's Institution
24,SAINT JOSEPH'S INSTITUTION INTERNATIONAL,490,THOMSON ROAD,SAINT JOSEPH'S INSTITUTION INTERNATIONAL,490 THOMSON ROAD SAINT JOSEPH'S INSTITUTION INTERNATIONAL SINGAPORE 298191,298191,28877.4865291258,34997.5215271115,1.33277966205662,103.841203293423,St. Joseph's Institution
25,SAINT JOSEPH'S INSTITUTION INTERNATIONAL ELEMENTARY SCHOOL,490,THOMSON ROAD,SAINT JOSEPH'S INSTITUTION INTERNATIONAL ELEMENTARY SCHOOL,490 THOMSON ROAD SAINT JOSEPH'S INSTITUTION INTERNATIONAL ELEMENTARY SCHOOL SINGAPORE 298191,298191,28848.9835623428,35078.1973871589,1.33350926674817,103.840947180336,St. Joseph's Institution
26,SAINT JOSEPH'S INSTITUTION,38,MALCOLM ROAD,SAINT JOSEPH'S INSTITUTION,38 MALCOLM ROAD SAINT JOSEPH'S INSTITUTION SINGAPORE 308274,308274,27463.6263318341,33988.3560766336,1.32365313490152,103.828498974985,St. Joseph's Institution
27,CHIJ SECONDARY (TOA PAYOH),626,LORONG 1 TOA PAYOH,CHIJ SECONDARY (TOA PAYOH),626 LORONG 1 TOA PAYOH CHIJ SECONDARY (TOA PAYOH) SINGAPORE 319764,319764,29107.6704288498,34962.2641689572,1.33246079948303,103.843271625083,CHIJ Secondary (Toa Payoh)
28,ANGLO-CHINESE SCHOOL (PRIMARY),50,BARKER ROAD,ANGLO-CHINESE SCHOOL (PRIMARY),50 BARKER ROAD ANGLO-CHINESE SCHOOL (PRIMARY) SINGAPORE 309918,309918,28254.9829477305,33404.2340238672,1.31837054523521,103.835609732354,Anglo-Chinese School (Primary)
29,COMPASSVALE PRIMARY SCHOOL,21,COMPASSVALE STREET,COMPASSVALE PRIMARY SCHOOL,21 COMPASSVALE STREET COMPASSVALE PRIMARY SCHOOL SINGAPORE 545091,545091,35177.2900137762,41816.2900234833,1.39444529636566,103.897812229905,Compassvale Primary School
30,SERANGOON GARDEN SECONDARY SCHOOL,21,SERANGOON NORTH AVENUE 1,SERANGOON GARDEN SECONDARY SCHOOL,21 SERANGOON NORTH AVENUE 1 SERANGOON GARDEN SECONDARY SCHOOL SINGAPORE 555889,555889,32000.9924708903,39038.6248832196,1.36932570490947,103.869270301476,Serangoon Garden Secondary School
31,NORTHLAND SECONDARY SCHOOL,3,YISHUN STREET 22,NORTHLAND SECONDARY SCHOOL,3 YISHUN STREET 22 NORTHLAND SECONDARY SCHOOL SINGAPORE 768578,768578,28755.1906477995,46389.1900489908,1.43580183362637,103.840104687784,Northland Secondary School
32,CHUA CHU KANG SECONDARY SCHOOL (CAMPUS 2),3,TECK WHYE CRESCENT,CHUA CHU KANG SECONDARY SCHOOL (CAMPUS 2),3 TECK WHYE CRESCENT CHUA CHU KANG SECONDARY SCHOOL (CAMPUS 2) SINGAPORE 688845,688845,18936.729485549,40571.8260801956,1.38319029263484,103.751878290333,Chua Chu Kang Secondary School
33,CHUA CHU KANG SECONDARY SCHOOL,31,TECK WHYE CRESCENT,CHUA CHU KANG SECONDARY SCHOOL,31 TECK WHYE CRESCENT CHUA CHU KANG SECONDARY SCHOOL SINGAPORE 688848,688848,19295.6301955935,40587.7294842005,1.38333422637073,103.75510327583,Chua Chu Kang Secondary School
34,THE LEARNING HARBOUR @ ADMIRALTY PRIMARY SCHOOL,11,WOODLANDS CIRCLE,THE LEARNING HARBOUR @ ADMIRALTY PRIMARY SCHOOL,11 WOODLANDS CIRCLE THE LEARNING HARBOUR @ ADMIRALTY PRIMARY SCHOOL SINGAPORE 738907,738907,24315.9398124339,47135.3542042952,1.44254963931583,103.800213682734,Admiralty Primary School
35,ADMIRALTY PRIMARY SCHOOL,11,WOODLANDS CIRCLE,ADMIRALTY PRIMARY SCHOOL,11 WOODLANDS CIRCLE ADMIRALTY PRIMARY SCHOOL SINGAPORE 738907,738907,24296.6250855923,47144.7700594738,1.4426347903311,103.800040119743,Admiralty Primary School
36,ZHENGHUA SECONDARY SCHOOL,62,BUKIT PANJANG RING ROAD,ZHENGHUA SECONDARY SCHOOL,62 BUKIT PANJANG RING ROAD ZHENGHUA SECONDARY SCHOOL SINGAPORE 679962,679962,20453.8539943136,41144.0638934448,1.38836583415352,103.765510638527,Zhenghua Secondary School
37,RIVER VALLEY HIGH SCHOOL,6,BOON LAY AVENUE,RIVER VALLEY HIGH SCHOOL,6 BOON LAY AVENUE RIVER VALLEY HIGH SCHOOL SINGAPORE 649961,649961,14167.1561531294,36247.1858126801,1.34407801149725,103.709022156436,River Valley High School
38,GREENRIDGE PRIMARY SCHOOL,11,JELAPANG ROAD,GREENRIDGE PRIMARY SCHOOL,11 JELAPANG ROAD GREENRIDGE PRIMARY SCHOOL SINGAPORE 677744,677744,20708.0073222192,40870.2050487585,1.3858892193692,103.767794469258,Greenridge Primary School
39,FERNVALE PRIMARY SCHOOL,1,FERNVALE LANE,FERNVALE PRIMARY SCHOOL,1 FERNVALE LANE FERNVALE PRIMARY SCHOOL SINGAPORE 797701,797701,32576.8849010281,41358.1178030372,1.39030227963797,103.874445458032,Fernvale Primary School
40,CHIJ OUR LADY QUEEN OF PEACE,4,CHESTNUT DRIVE,CHIJ OUR LADY QUEEN OF PEACE,4 CHESTNUT DRIVE CHIJ OUR LADY QUEEN OF PEACE SINGAPORE 679287,679287,20665.4072236279,38737.7066427004,1.366603668561,103.767412204602,CHIJ Our Lady Queen of Peace
41,CHIJ OUR LADY QUEEN OF PEACE,4A,CHESTNUT DRIVE,CHIJ OUR LADY QUEEN OF PEACE,4A CHESTNUT DRIVE CHIJ OUR LADY QUEEN OF PEACE SINGAPORE 679330,679330,20813.0919199651,38721.8321143519,1.36646014136363,103.768739256709,CHIJ Our Lady Queen of Peace
42,ADMIRALTY SECONDARY SCHOOL,31,WOODLANDS CRESCENT,ADMIRALTY SECONDARY SCHOOL,31 WOODLANDS CRESCENT ADMIRALTY SECONDARY SCHOOL SINGAPORE 737916,737916,24559.0472937012,47504.7873554379,1.44589068910993,103.802398196596,Admiralty Secondary School
43,DEYI SECONDARY SCHOOL,1,ANG MO KIO STREET 42,DEYI SECONDARY SCHOOL,1 ANG MO KIO STREET 42 DEYI SECONDARY SCHOOL SINGAPORE 569277,569277,30139.7572483057,38670.5350554623,1.36599702567717,103.852545772422,Deyi Secondary School
44,WOODLANDS RING SECONDARY SCHOOL,10,WOODLANDS RING ROAD,WOODLANDS RING SECONDARY SCHOOL,10 WOODLANDS RING ROAD WOODLANDS RING SECONDARY SCHOOL SINGAPORE 738239,738239,24308.6728630271,46465.1933193207,1.43648894729939,103.800148469692,Woodlands Ring Secondary School
45,SAINT ANTHONY'S CANOSSIAN SECONDARY SCHOOL,1600,BEDOK NORTH AVENUE 4,SAINT ANTHONY'S CANOSSIAN SECONDARY SCHOOL,1600 BEDOK NORTH AVENUE 4 SAINT ANTHONY'S CANOSSIAN SECONDARY SCHOOL SINGAPORE 469700,469700,40092.566337103,35206.0519231595,1.33466313498855,103.941977166932,St. Anthony's Canossian Secondary School
46,NAN HUA PRIMARY SCHOOL,30,JALAN LEMPENG,NAN HUA PRIMARY SCHOOL,30 JALAN LEMPENG NAN HUA PRIMARY SCHOOL SINGAPORE 128806,128806,19962.2298404071,33496.2443055101,1.31920159956387,103.761095065761,Nan Hua Primary School
47,ANDERSON PRIMARY SCHOOL,19,ANG MO KIO AVENUE 9,ANDERSON PRIMARY SCHOOL,19 ANG MO KIO AVENUE 9 ANDERSON PRIMARY SCHOOL SINGAPORE 569785,569785,28898.4776482461,40690.4297215287,1.38426429436736,103.841392081119,Anderson Primary School
48,BENDEMEER SECONDARY SCHOOL,1,SAINT WILFRED ROAD,BENDEMEER SECONDARY SCHOOL,1 SAINT WILFRED ROAD BENDEMEER SECONDARY SCHOOL SINGAPORE 327919,327919,31077.3568056701,34094.3010115474,1.32461111307996,103.860970284401,Bendemeer Secondary School
49,BENDEMEER SECONDARY SCHOOL,1,ST. WILFRED ROAD,BENDEMEER SECONDARY SCHOOL,1 ST. WILFRED ROAD BENDEMEER SECONDARY SCHOOL SINGAPORE 327919,327919,31039.95977348,34055.332526179,1.32425869967174,103.860634248131,Bendemeer Secondary School
50,JURONGVILLE SECONDARY SCHOOL,202,JURONG EAST AVENUE 1,JURONGVILLE SECONDARY SCHOOL,202 JURONG EAST AVENUE 1 JURONGVILLE SECONDARY SCHOOL SINGAPORE 609790,609790,16380.2394942129,37044.3966198433,1.35128862770284,103.728907710089,Jurongville Secondary School
51,WELLINGTON PRIMARY SCHOOL,10,WELLINGTON CIRCLE,WELLINGTON PRIMARY SCHOOL,10 WELLINGTON CIRCLE WELLINGTON PRIMARY SCHOOL SINGAPORE 757702,757702,26774.2225156762,48171.4790451899,1.45192019155475,103.822303719094,Wellington Primary School
52,NORTHLAND PRIMARY SCHOOL,15,YISHUN AVENUE 4,NORTHLAND PRIMARY SCHOOL,15 YISHUN AVENUE 4 NORTHLAND PRIMARY SCHOOL SINGAPORE 769026,769026,28846.8654693784,44749.1496797893,1.42096989918951,103.840928424929,Northland Primary School
53,MAYFLOWER SECONDARY SCHOOL,2,ANG MO KIO STREET 21,MAYFLOWER SECONDARY SCHOOL,2 ANG MO KIO STREET 21 MAYFLOWER SECONDARY SCHOOL SINGAPORE 569384,569384,28227.2664945051,38922.1548925955,1.36827266209722,103.835360726863,Mayflower Secondary School
54,HENRY PARK PRIMARY SCHOOL,1,HOLLAND GROVE ROAD,HENRY PARK PRIMARY SCHOOL,1 HOLLAND GROVE ROAD HENRY PARK PRIMARY SCHOOL SINGAPORE 278790,278790,22544.2873791968,33216.9645254761,1.31667646178347,103.784296227747,Henry Park Primary School
55,BROADRICK SECONDARY SCHOOL,61,DAKOTA CRESCENT,BROADRICK SECONDARY SCHOOL,61 DAKOTA CRESCENT BROADRICK SECONDARY SCHOOL SINGAPORE 399935,399935,33965.1104164785,32152.5974159427,1.30705061123433,103.886917922608,Broadrick Secondary School
56,WESTWOOD SECONDARY SCHOOL,11,JURONG WEST STREET 25,WESTWOOD SECONDARY SCHOOL,11 JURONG WEST STREET 25 WESTWOOD SECONDARY SCHOOL SINGAPORE 648350,648350,13360.360080882,37315.2708597258,1.35373698510994,103.701772102139,Westwood Secondary School
57,YIO CHU KANG SECONDARY SCHOOL,3063,ANG MO KIO AVENUE 5,YIO CHU KANG SECONDARY SCHOOL,3063 ANG MO KIO AVENUE 5 YIO CHU KANG SECONDARY SCHOOL SINGAPORE 569868,569868,28981.3761166064,39995.0998579115,1.37797597740925,103.84213696352,Yio Chu Kang Secondary School
58,BUKIT BATOK SECONDARY SCHOOL,50,BUKIT BATOK WEST AVENUE 8,BUKIT BATOK SECONDARY SCHOOL,50 BUKIT BATOK WEST AVENUE 8 BUKIT BATOK SECONDARY SCHOOL SINGAPORE 658962,658962,17711.9101901269,36735.00712738,1.34849111079052,103.74087370482,Bukit Batok Secondary School
59,SERANGOON GARDEN SECONDARY SCHOOL,21,SERANGOON NORTH AVENUE 1,SERANGOON GARDEN SECONDARY SCHOOL,21 SERANGOON NORTH AVENUE 1 SERANGOON GARDEN SECONDARY SCHOOL SINGAPORE 555889,555889,32000.9924708903,39038.6248832196,1.36932570490947,103.869270301476,Serangoon Secondary School
60,SERANGOON SECONDARY SCHOOL,11,UPPER SERANGOON VIEW,SERANGOON SECONDARY SCHOOL,11 UPPER SERANGOON VIEW SERANGOON SECONDARY SCHOOL SINGAPORE 534237,534237,35658.8371386668,39628.0344803315,1.37465538827443,103.902138740699,Serangoon Secondary School
61,CHUA CHU KANG PRIMARY SCHOOL,20,CHOA CHU KANG AVENUE 2,CHUA CHU KANG PRIMARY SCHOOL,20 CHOA CHU KANG AVENUE 2 CHUA CHU KANG PRIMARY SCHOOL SINGAPORE 689905,689905,17818.7829598142,39971.2903354876,1.37775890093367,103.741832917421,Chua Chu Kang Primary School
62,SAINT STEPHEN'S SCHOOL,20,SIGLAP VIEW,SAINT STEPHEN'S SCHOOL,20 SIGLAP VIEW SAINT STEPHEN'S SCHOOL SINGAPORE 455789,455789,37341.652827817,33450.7695051655,1.31878997295135,103.917258129598,St. Stephen's School
63,LOYANG VIEW SECONDARY SCHOOL,12,PASIR RIS STREET 11,LOYANG VIEW SECONDARY SCHOOL,12 PASIR RIS STREET 11 LOYANG VIEW SECONDARY SCHOOL SINGAPORE 519073,519073,41758.1067258865,38735.8040275108,1.36658417167238,103.956944585725,Loyang View Secondary School
64,PEICAI SECONDARY SCHOOL,10,SERANGOON AVENUE 4,PEICAI SECONDARY SCHOOL,10 SERANGOON AVENUE 4 PEICAI SECONDARY SCHOOL SINGAPORE 556094,556094,32083.411887873,37953.9001634661,1.35951583222214,103.870010749055,Peicai Secondary School
65,METHODIST CENTRE (ANGLO-CHINESE SCHOOL (BARKER ROAD)),48,BARKER ROAD,METHODIST CENTRE (ANGLO-CHINESE SCHOOL (BARKER ROAD)),48 BARKER ROAD METHODIST CENTRE (ANGLO-CHINESE SCHOOL (BARKER ROAD)) SINGAPORE 309917,309917,28165.168426699,33483.7083660327,1.31908928371585,103.834802703002,Anglo-Chinese School (Barker Road)
66,ANGLO-CHINESE SCHOOL (BARKER ROAD),60,BARKER ROAD,ANGLO-CHINESE SCHOOL (BARKER ROAD),60 BARKER ROAD ANGLO-CHINESE SCHOOL (BARKER ROAD) SINGAPORE 309919,309919,28273.1184036592,33542.0043816008,1.31961649151328,103.835772689988,Anglo-Chinese School (Barker Road)
67,METHODIST CENTRE (ANGLO-CHINESE SCHOOL (BARKER ROAD)),70,BARKER ROAD,METHODIST CENTRE (ANGLO-CHINESE SCHOOL (BARKER ROAD)),70 BARKER ROAD METHODIST CENTRE (ANGLO-CHINESE SCHOOL (BARKER ROAD)) SINGAPORE 309936,309936,28133.2650638213,33491.269035954,1.3191576598967,103.83451603479,Anglo-Chinese School (Barker Road)
68,RAFFLES GIRLS' SCHOOL (SECONDARY),2,BRADDELL RISE,RAFFLES GIRLS' SCHOOL (SECONDARY),2 BRADDELL RISE RAFFLES GIRLS' SCHOOL (SECONDARY) SINGAPORE 318871,318871,29092.3551620366,36036.388495991,1.34217479932295,103.84313404727,Raffles Girls' School (Secondary)
69,PUNGGOL GREEN PRIMARY SCHOOL,98,PUNGGOL WALK,PUNGGOL GREEN PRIMARY SCHOOL,98 PUNGGOL WALK PUNGGOL GREEN PRIMARY SCHOOL SINGAPORE 828772,828772,35287.340952022,42637.5237120874,1.40187220643293,103.898801330302,Punggol Green Primary School
70,LEARNING LEAP PTE LTD (PUNGGOL GREEN PRIMARY SCHOOL),98,PUNGGOL WALK,LEARNING LEAP PTE LTD (PUNGGOL GREEN PRIMARY SCHOOL),98 PUNGGOL WALK LEARNING LEAP PTE LTD (PUNGGOL GREEN PRIMARY SCHOOL) SINGAPORE 828772,828772,35286.5548319491,42621.3463525623,1.40172590450528,103.898794262307,Punggol Green Primary School
71,COMMIT LEARNING SCHOOLHOUSE @ CHIJ OUR LADY OF THE NATIVITY,1257,UPPER SERANGOON ROAD,COMMIT LEARNING SCHOOLHOUSE @ CHIJ OUR LADY OF THE NATIVITY,1257 UPPER SERANGOON ROAD COMMIT LEARNING SCHOOLHOUSE @ CHIJ OUR LADY OF THE NATIVITY SINGAPORE 534793,534793,35172.5371230971,39508.4571482297,1.37357409699145,103.897768958127,CHIJ Our Lady of the Nativity
72,CHIJ OUR LADY OF THE NATIVITY,1257,UPPER SERANGOON ROAD,CHIJ OUR LADY OF THE NATIVITY,1257 UPPER SERANGOON ROAD CHIJ OUR LADY OF THE NATIVITY SINGAPORE 534793,534793,35151.0338091562,39478.4768616967,1.37330297140128,103.897575728303,CHIJ Our Lady of the Nativity
73,XINMIN PRIMARY SCHOOL,9,HOUGANG AVENUE 8,XINMIN PRIMARY SCHOOL,9 HOUGANG AVENUE 8 XINMIN PRIMARY SCHOOL SINGAPORE 538784,538784,33537.9261037428,39267.5186706744,1.37139548941931,103.883080767491,Xinmin Primary School
74,COMMIT LEARNING SCHOOLHOUSE @ PEIYING PRIMARY SCHOOL,651,YISHUN RING ROAD,COMMIT LEARNING SCHOOLHOUSE @ PEIYING PRIMARY SCHOOL,651 YISHUN RING ROAD COMMIT LEARNING SCHOOLHOUSE @ PEIYING PRIMARY SCHOOL SINGAPORE 768687,768687,27646.6270154091,44356.206750067,1.41741627551251,103.830143209875,Peiying Primary School
75,PEIYING PRIMARY SCHOOL,651,YISHUN RING ROAD,PEIYING PRIMARY SCHOOL,651 YISHUN RING ROAD PEIYING PRIMARY SCHOOL SINGAPORE 768687,768687,27677.1059972411,44335.9849220216,1.41723339695904,103.830417090698,Peiying Primary School
76,DUNMAN HIGH SCHOOL,10,TANJONG RHU ROAD,DUNMAN HIGH SCHOOL,10 TANJONG RHU ROAD DUNMAN HIGH SCHOOL SINGAPORE 436895,436895,33522.593402571,31368.7836118564,1.29996216014962,103.88294155989,Dunman High School
77,DUNMAN HIGH SCHOOL HOSTEL,61,KAMPONG ARANG ROAD,DUNMAN HIGH SCHOOL HOSTEL,61 KAMPONG ARANG ROAD DUNMAN HIGH SCHOOL HOSTEL SINGAPORE 438181,438181,33469.6316953814,31338.2193651143,1.29968575732487,103.882465669954,Dunman High School
78,DUNEARN SECONDARY SCHOOL,21,BUKIT BATOK WEST AVENUE 2,DUNEARN SECONDARY SCHOOL,21 BUKIT BATOK WEST AVENUE 2 DUNEARN SECONDARY SCHOOL SINGAPORE 659204,659204,18140.1430463539,38403.3358936273,1.36357900792871,103.74472109107,Dunearn Secondary School
79,WESTWOOD PRIMARY SCHOOL,1,JURONG WEST STREET 73,WESTWOOD PRIMARY SCHOOL,1 JURONG WEST STREET 73 WESTWOOD PRIMARY SCHOOL SINGAPORE 649188,649188,13222.5567915821,36590.7433790993,1.34718456606375,103.70053420978,Westwood Primary School
80,TELOK KURAU PRIMARY SCHOOL,50,BEDOK RESERVOIR ROAD,TELOK KURAU PRIMARY SCHOOL,50 BEDOK RESERVOIR ROAD TELOK KURAU PRIMARY SCHOOL SINGAPORE 479239,479239,36637.797290422,34805.9404149763,1.33104585441349,103.910934011337,Telok Kurau Primary School
81,COMMIT LEARNING SCHOOLHOUSE @ WOODLANDS PRIMARY SCHOOL,10,WOODLANDS DRIVE 50,COMMIT LEARNING SCHOOLHOUSE @ WOODLANDS PRIMARY SCHOOL,10 WOODLANDS DRIVE 50 COMMIT LEARNING SCHOOLHOUSE @ WOODLANDS PRIMARY SCHOOL SINGAPORE 738853,738853,23378.645416881,46475.5760247037,1.43658270720199,103.791791282236,Woodlands Primary School
82,WOODLANDS PRIMARY SCHOOL,10,WOODLANDS DRIVE 50,WOODLANDS PRIMARY SCHOOL,10 WOODLANDS DRIVE 50 WOODLANDS PRIMARY SCHOOL SINGAPORE 738853,738853,23354.0808293354,46472.0799515136,1.43655108594232,103.791570546509,Woodlands Primary School
83,WOODLANDS RING PRIMARY SCHOOL,11,WOODLANDS RING ROAD,WOODLANDS RING PRIMARY SCHOOL,11 WOODLANDS RING ROAD WOODLANDS RING PRIMARY SCHOOL SINGAPORE 738240,738240,24006.7839585366,46295.2823582534,1.43495229315857,103.797435733144,Woodlands Primary School
84,TANJONG KATONG GIRLS' SCHOOL,20,DUNMAN LANE,TANJONG KATONG GIRLS' SCHOOL,20 DUNMAN LANE TANJONG KATONG GIRLS' SCHOOL SINGAPORE 439272,439272,34955.8368231514,32281.1232958212,1.30821274627283,103.895820094229,Tanjong Katong Girls' School
85,ASSUMPTION ENGLISH SCHOOL,622,UPPER BUKIT TIMAH ROAD,ASSUMPTION ENGLISH SCHOOL,622 UPPER BUKIT TIMAH ROAD ASSUMPTION ENGLISH SCHOOL SINGAPORE 678117,678117,20584.7646280937,38934.3043401875,1.36838160662857,103.766687526556,Assumption English School
86,AHMAD IBRAHIM SECONDARY SCHOOL,751,YISHUN AVENUE 7,AHMAD IBRAHIM SECONDARY SCHOOL,751 YISHUN AVENUE 7 AHMAD IBRAHIM SECONDARY SCHOOL SINGAPORE 768928,768928,27599.3872889336,46417.7087551262,1.43605975368804,103.829718690077,Ahmad Ibrahim Secondary School
87,YUHUA PRIMARY SCHOOL,158,JURONG EAST STREET 24,YUHUA PRIMARY SCHOOL,158 JURONG EAST STREET 24 YUHUA PRIMARY SCHOOL SINGAPORE 609558,609558,17737.7130106175,36105.9662365932,1.34280230475033,103.741105772644,Yuhua Primary School
88,BIG HEART STUDENT CARE (WEST VIEW PRIMARY SCHOOL),31,SENJA ROAD,BIG HEART STUDENT CARE (WEST VIEW PRIMARY SCHOOL),31 SENJA ROAD BIG HEART STUDENT CARE (WEST VIEW PRIMARY SCHOOL) SINGAPORE 677742,677742,19871.0048010657,40637.6069141179,1.38378546546228,103.760273432258,West View Primary School
89,WEST VIEW PRIMARY SCHOOL,31,SENJA ROAD,WEST VIEW PRIMARY SCHOOL,31 SENJA ROAD WEST VIEW PRIMARY SCHOOL SINGAPORE 677742,677742,19867.3321747258,40625.4829824362,1.3836758200336,103.760240434318,West View Primary School
90,CHUNG CHENG HIGH SCHOOL (MAIN) ADMINISTRATION BUILDING AND ENTRANCE ARCH,50,GOODMAN ROAD,CHUNG CHENG HIGH SCHOOL (MAIN) ADMINISTRATION BUILDING AND ENTRANCE ARCH,50 GOODMAN ROAD CHUNG CHENG HIGH SCHOOL (MAIN) ADMINISTRATION BUILDING AND ENTRANCE ARCH SINGAPORE 439012,439012,34387.4480683208,31907.6790314764,1.30483557242719,103.890712775053,Chung Cheng High School (Main)
91,CHUNG CHENG HIGH SCHOOL (MAIN),50,GOODMAN ROAD,CHUNG CHENG HIGH SCHOOL (MAIN),50 GOODMAN ROAD CHUNG CHENG HIGH SCHOOL (MAIN) SINGAPORE 439012,439012,34492.1113962689,31935.9858617261,1.30509154753048,103.891653229373,Chung Cheng High School (Main)
92,SAINT MARGARET'S PRIMARY SCHOOL,2,MATTAR ROAD,SAINT MARGARET'S PRIMARY SCHOOL,2 MATTAR ROAD SAINT MARGARET'S PRIMARY SCHOOL SINGAPORE 387724,387724,33376.0018041981,34070.0528455041,1.32439150290682,103.881624837373,St. Margaret's Primary School
93,SAINT MARGARET'S PRIMARY SCHOOL (U/C),136,SOPHIA ROAD,SAINT MARGARET'S PRIMARY SCHOOL (U/C),136 SOPHIA ROAD SAINT MARGARET'S PRIMARY SCHOOL (U/C) SINGAPORE 228197,228197,29432.7525088117,31788.5599566493,1.30375892693678,103.846192524384,St. Margaret's Primary School
94,JUNYUAN SECONDARY SCHOOL,11,TAMPINES STREET 84,JUNYUAN SECONDARY SCHOOL,11 TAMPINES STREET 84 JUNYUAN SECONDARY SCHOOL SINGAPORE 528933,528933,39192.0351621611,37301.4129357934,1.35361315263537,103.933886165824,Junyuan Secondary School
95,REGENT SECONDARY SCHOOL,50,CHOA CHU KANG NORTH 5,REGENT SECONDARY SCHOOL,50 CHOA CHU KANG NORTH 5 REGENT SECONDARY SCHOOL SINGAPORE 689621,689621,18842.8552409327,41687.3977799285,1.39327908335682,103.751034411529,Regent Secondary School
96,MARIS STELLA HIGH SCHOOL,25,MOUNT VERNON ROAD,MARIS STELLA HIGH SCHOOL,25 MOUNT VERNON ROAD MARIS STELLA HIGH SCHOOL SINGAPORE 368051,368051,32956.1427672738,35950.1756834127,1.34139473351039,103.877852484979,Maris Stella High School
97,MARIS STELLA HIGH SCHOOL,80,BARTLEY ROAD,MARIS STELLA HIGH SCHOOL,80 BARTLEY ROAD MARIS STELLA HIGH SCHOOL SINGAPORE 539786,539786,32983.2916958053,36037.4445459433,1.34218395739981,103.87809644863,Maris Stella High School
98,CHIJ SAINT NICHOLAS GIRLS' SCHOOL,501,ANG MO KIO STREET 13,CHIJ SAINT NICHOLAS GIRLS' SCHOOL,501 ANG MO KIO STREET 13 CHIJ SAINT NICHOLAS GIRLS' SCHOOL SINGAPORE 569405,569405,28104.0195931299,39497.6106162649,1.37347687878916,103.834253269436,CHIJ St. Nicholas Girls' School
99,NAN CHIAU PRIMARY SCHOOL,50,ANCHORVALE LINK,NAN CHIAU PRIMARY SCHOOL,50 ANCHORVALE LINK NAN CHIAU PRIMARY SCHOOL SINGAPORE 545080,545080,34439.3196740765,41569.2687405795,1.39221149906592,103.891180928186,Nan Chiau Primary School
100,ANGLICAN HIGH SCHOOL,600,UPPER CHANGI ROAD,ANGLICAN HIGH SCHOOL,600 UPPER CHANGI ROAD ANGLICAN HIGH SCHOOL SINGAPORE 487012,487012,40078.8166212114,34821.0227393862,1.33118107926966,103.941853465631,Anglican High School
101,GREENRIDGE SECONDARY SCHOOL,31,GANGSA ROAD,GREENRIDGE SECONDARY SCHOOL,31 GANGSA ROAD GREENRIDGE SECONDARY SCHOOL SINGAPORE 678972,678972,20285.5773530258,39732.4925308134,1.375600053443,103.763998914082,Greenridge Secondary School
102,NAVAL BASE SECONDARY SCHOOL,901,YISHUN RING ROAD,NAVAL BASE SECONDARY SCHOOL,901 YISHUN RING ROAD NAVAL BASE SECONDARY SCHOOL SINGAPORE 768689,768689,27747.583393123,44573.2144819219,1.41937881620441,103.831050390247,Naval Base Secondary School
103,NANYANG GIRLS' HIGH SCHOOL,2,LINDEN DRIVE,NANYANG GIRLS' HIGH SCHOOL,2 LINDEN DRIVE NANYANG GIRLS' HIGH SCHOOL SINGAPORE 288683,288683,24561.4160661073,34754.6755309552,1.33058326666479,103.802420979943,Nanyang Girls' High School
104,EAST SPRING PRIMARY SCHOOL,31,TAMPINES STREET 33,EAST SPRING PRIMARY SCHOOL,31 TAMPINES STREET 33 EAST SPRING PRIMARY SCHOOL SINGAPORE 529258,529258,42284.8340225685,37198.8184850682,1.35268400746357,103.961676849165,East Spring Primary School
105,QIFA PRIMARY SCHOOL,50,WEST COAST AVENUE,QIFA PRIMARY SCHOOL,50 WEST COAST AVENUE QIFA PRIMARY SCHOOL SINGAPORE 128104,128104,19477.8961843997,32838.2868056744,1.31325113867272,103.756743261958,Qifa Primary School
106,AMP-MERCU STUDENT CARE CENTRE @ QIFA PRIMARY SCHOOL,50,WEST COAST AVENUE,AMP-MERCU STUDENT CARE CENTRE @ QIFA PRIMARY SCHOOL,50 WEST COAST AVENUE AMP-MERCU STUDENT CARE CENTRE @ QIFA PRIMARY SCHOOL SINGAPORE 128104,128104,19465.1912890384,32839.9119845238,1.3132658326807,103.756629101811,Qifa Primary School
107,PAYA LEBAR METHODIST GIRLS' SCHOOL (PRIMARY),298,LORONG AH SOO,PAYA LEBAR METHODIST GIRLS' SCHOOL (PRIMARY),298 LORONG AH SOO PAYA LEBAR METHODIST GIRLS' SCHOOL (PRIMARY) SINGAPORE 536741,536741,33748.3760953182,36843.4187818952,1.34947276268396,103.884971343143,Paya Lebar Methodist Girls' School (Primary)
108,ELIAS PARK PRIMARY SCHOOL,11,PASIR RIS STREET 52,ELIAS PARK PRIMARY SCHOOL,11 PASIR RIS STREET 52 ELIAS PARK PRIMARY SCHOOL SINGAPORE 518866,518866,40443.0313903531,39612.4369040336,1.37451269377776,103.945128117139,Elias Park Primary School
109,AFTERSCHOOL @ ELIAS PARK PRIMARY SCHOOL,11,PASIR RIS STREET 52,AFTERSCHOOL @ ELIAS PARK PRIMARY SCHOOL,11 PASIR RIS STREET 52 AFTERSCHOOL @ ELIAS PARK PRIMARY SCHOOL SINGAPORE 518866,518866,40460.9792755861,39672.6204007976,1.37505696315817,103.945289416873,Elias Park Primary School
110,TANJONG KATONG SECONDARY SCHOOL,130,HAIG ROAD,TANJONG KATONG SECONDARY SCHOOL,130 HAIG ROAD TANJONG KATONG SECONDARY SCHOOL SINGAPORE 438796,438796,35112.2101863576,32338.8930419572,1.30873515955341,103.897225196199,Tanjong Katong Secondary School
111,JURONG WEST PRIMARY SCHOOL,30,JURONG WEST STREET 61,JURONG WEST PRIMARY SCHOOL,30 JURONG WEST STREET 61 JURONG WEST PRIMARY SCHOOL SINGAPORE 648368,648368,13029.9245329089,35705.1165225543,1.33917519796104,103.698803732244,Jurong Primary School
112,JURONG PRIMARY SCHOOL,320,JURONG EAST STREET 32,JURONG PRIMARY SCHOOL,320 JURONG EAST STREET 32 JURONG PRIMARY SCHOOL SINGAPORE 609476,609476,16853.0771883978,36729.2343872562,1.34843859698946,103.733156566858,Jurong Primary School
113,BEDOK GREEN PRIMARY SCHOOL,1,BEDOK SOUTH AVENUE 2,BEDOK GREEN PRIMARY SCHOOL,1 BEDOK SOUTH AVENUE 2 BEDOK GREEN PRIMARY SCHOOL SINGAPORE 469317,469317,39636.5324891713,33965.6893824711,1.32344593287992,103.937878976352,Bedok Green Primary School
114,YISHUN TOWN SECONDARY SCHOOL,6,YISHUN STREET 21,YISHUN TOWN SECONDARY SCHOOL,6 YISHUN STREET 21 YISHUN TOWN SECONDARY SCHOOL SINGAPORE 768610,768610,28531.4577029087,46004.3591205124,1.43232156717386,103.838094226361,Yishun Town Secondary School
115,SAINT ANTHONY'S CANOSSIAN PRIMARY SCHOOL,1602,BEDOK NORTH AVENUE 4,SAINT ANTHONY'S CANOSSIAN PRIMARY SCHOOL,1602 BEDOK NORTH AVENUE 4 SAINT ANTHONY'S CANOSSIAN PRIMARY SCHOOL SINGAPORE 469701,469701,40009.9558383394,35212.930261923,1.3347253730189,103.941234868202,St. Anthony's Primary School
116,SAINT ANTHONY'S PRIMARY SCHOOL,30,BUKIT BATOK STREET 32,SAINT ANTHONY'S PRIMARY SCHOOL,30 BUKIT BATOK STREET 32 SAINT ANTHONY'S PRIMARY SCHOOL SINGAPORE 659401,659401,18644.3733009221,38463.0810494516,1.36411948475833,103.749251919049,St. Anthony's Primary School
117,PASIR RIS CREST SECONDARY SCHOOL,11,PASIR RIS STREET 41,PASIR RIS CREST SECONDARY SCHOOL,11 PASIR RIS STREET 41 PASIR RIS CREST SECONDARY SCHOOL SINGAPORE 518934,518934,42067.8542885976,39427.6259528883,1.37284060102246,103.959728202919,Pasir Ris Crest Secondary School
118,SAINT HILDA'S PRIMARY SCHOOL (U/C),2,TAMPINES AVENUE 3,SAINT HILDA'S PRIMARY SCHOOL (U/C),2 TAMPINES AVENUE 3 SAINT HILDA'S PRIMARY SCHOOL (U/C) SINGAPORE 529706,529706,39641.0330356695,36830.0272573233,1.34934994368496,103.937920511812,St. Hilda's Primary School
119,SAINT HILDA'S PRIMARY SCHOOL,2,TAMPINES AVENUE 3,SAINT HILDA'S PRIMARY SCHOOL,2 TAMPINES AVENUE 3 SAINT HILDA'S PRIMARY SCHOOL SINGAPORE 529706,529706,39539.3839146122,36833.9711756017,1.34938565036336,103.937007133662,St. Hilda's Primary School
120,EAST SPRING SECONDARY SCHOOL,30,TAMPINES STREET 34,EAST SPRING SECONDARY SCHOOL,30 TAMPINES STREET 34 EAST SPRING SECONDARY SCHOOL SINGAPORE 529231,529231,42169.5015330398,37590.3682097681,1.35622508992581,103.960640700298,East Spring Secondary School
121,DUNMAN SECONDARY SCHOOL,21,TAMPINES STREET 45,DUNMAN SECONDARY SCHOOL,21 TAMPINES STREET 45 DUNMAN SECONDARY SCHOOL SINGAPORE 529093,529093,41676.8242046405,38079.9135282841,1.36065258337022,103.956213906966,Dunman Secondary School
122,MAYFLOWER PRIMARY SCHOOL,200,ANG MO KIO AVENUE 5,MAYFLOWER PRIMARY SCHOOL,200 ANG MO KIO AVENUE 5 MAYFLOWER PRIMARY SCHOOL SINGAPORE 569878,569878,29105.5559377754,39818.2753564138,1.37637683547682,103.843252803742,Mayflower Primary School
123,SHG STUDENT CARE (MAYFLOWER PRIMARY SCHOOL),200,ANG MO KIO AVENUE 5,SHG STUDENT CARE (MAYFLOWER PRIMARY SCHOOL),200 ANG MO KIO AVENUE 5 SHG STUDENT CARE (MAYFLOWER PRIMARY SCHOOL) SINGAPORE 569878,569878,29095.8686998552,39820.6966135036,1.37639873282244,103.843165756947,Mayflower Primary School
124,WEST SPRING PRIMARY SCHOOL,60,BUKIT PANJANG RING ROAD,WEST SPRING PRIMARY SCHOOL,60 BUKIT PANJANG RING ROAD WEST SPRING PRIMARY SCHOOL SINGAPORE 679946,679946,20530.0971989501,41262.9989389312,1.38944145898943,103.766195711835,West Spring Primary School
125,TRI-LOVE STUDENT CARE @ NORTH VIEW PRIMARY SCHOOL,210,YISHUN AVENUE 6,TRI-LOVE STUDENT CARE @ NORTH VIEW PRIMARY SCHOOL,210 YISHUN AVENUE 6 TRI-LOVE STUDENT CARE @ NORTH VIEW PRIMARY SCHOOL SINGAPORE 768960,768960,29662.2004727796,45473.7919063438,1.42752326549687,103.848254983853,North View Primary School
126,NORTH VIEW PRIMARY SCHOOL,210,YISHUN AVENUE 6,NORTH VIEW PRIMARY SCHOOL,210 YISHUN AVENUE 6 NORTH VIEW PRIMARY SCHOOL SINGAPORE 768960,768960,29655.0564113865,45473.7925722394,1.42752327193727,103.848190787869,North View Primary School
127,BUKIT VIEW SECONDARY SCHOOL,16,BUKIT BATOK STREET 21,BUKIT VIEW SECONDARY SCHOOL,16 BUKIT BATOK STREET 21 BUKIT VIEW SECONDARY SCHOOL SINGAPORE 659633,659633,18975.3516749162,36429.990117576,1.3457330554294,103.752226593984,Bukit View Secondary School
128,DE LA SALLE SCHOOL,11,CHOA CHU KANG STREET 52,DE LA SALLE SCHOOL,11 CHOA CHU KANG STREET 52 DE LA SALLE SCHOOL SINGAPORE 689285,689285,17971.195454672,41845.4133931287,1.3947078296399,103.743201812831,De La Salle School
129,KENT RIDGE SECONDARY SCHOOL,147,WEST COAST ROAD,KENT RIDGE SECONDARY SCHOOL,147 WEST COAST ROAD KENT RIDGE SECONDARY SCHOOL SINGAPORE 127368,127368,20384.4722389057,31508.7733694967,1.30122773426098,103.764889617566,Kent Ridge Secondary School
130,HAI SING CATHOLIC SCHOOL,9,PASIR RIS DRIVE 6,HAI SING CATHOLIC SCHOOL,9 PASIR RIS DRIVE 6 HAI SING CATHOLIC SCHOOL SINGAPORE 519421,519421,41536.9732257053,39594.1036770996,1.37434641160381,103.954957944437,Hai Sing Catholic School
131,CANBERRA SECONDARY SCHOOL,51,SEMBAWANG DRIVE,CANBERRA SECONDARY SCHOOL,51 SEMBAWANG DRIVE CANBERRA SECONDARY SCHOOL SINGAPORE 757699,757699,25872.8083025776,48311.9895634912,1.45319086315972,103.814203583818,Canberra Secondary School
132,ANGLO-CHINESE SCHOOL (JUNIOR),16,WINSTEDT ROAD,ANGLO-CHINESE SCHOOL (JUNIOR),16 WINSTEDT ROAD ANGLO-CHINESE SCHOOL (JUNIOR) SINGAPORE 227988,227988,28849.3350947062,32406.8353125956,1.30935041274966,103.840950265464,Anglo-Chinese School (Junior)
133,EPWORTH STUDENT CARE (ANGLO-CHINESE SCHOOL JUNIOR),16,WINSTEDT ROAD,EPWORTH STUDENT CARE (ANGLO-CHINESE SCHOOL JUNIOR),16 WINSTEDT ROAD EPWORTH STUDENT CARE (ANGLO-CHINESE SCHOOL JUNIOR) SINGAPORE 227988,227988,28916.3166898089,32403.7520947009,1.30932252730174,103.841552127373,Anglo-Chinese School (Junior)
134,SHG STUDENT CARE (TECK WHYE PRIMARY SCHOOL),11,TECK WHYE WALK,SHG STUDENT CARE (TECK WHYE PRIMARY SCHOOL),11 TECK WHYE WALK SHG STUDENT CARE (TECK WHYE PRIMARY SCHOOL) SINGAPORE 688261,688261,19164.4558974076,40648.8130902648,1.38388660469396,103.753924558586,Teck Whye Primary School
135,TECK WHYE PRIMARY SCHOOL,11,TECK WHYE WALK,TECK WHYE PRIMARY SCHOOL,11 TECK WHYE WALK TECK WHYE PRIMARY SCHOOL SINGAPORE 688261,688261,19094.0433355458,40622.6493846048,1.38364996834457,103.753291857016,Teck Whye Primary School
136,SINGAPORE CHINESE GIRLS' SCHOOL (PRIMARY),190,DUNEARN ROAD,SINGAPORE CHINESE GIRLS' SCHOOL (PRIMARY),190 DUNEARN ROAD SINGAPORE CHINESE GIRLS' SCHOOL (PRIMARY) SINGAPORE 309437,309437,27379.6878858209,33673.6731678378,1.32080725235992,103.827744749548,Singapore Chinese Girlsâ€™ School (Primary)
137,BEDOK VIEW SECONDARY SCHOOL,6,BEDOK SOUTH AVENUE 3,BEDOK VIEW SECONDARY SCHOOL,6 BEDOK SOUTH AVENUE 3 BEDOK VIEW SECONDARY SCHOOL SINGAPORE 469293,469293,40292.8371452186,34044.3485775683,1.32415704029686,103.943776245024,Bedok View Secondary School
138,CLEMENTI TOWN SECONDARY SCHOOL,10,CLEMENTI AVENUE 3,CLEMENTI TOWN SECONDARY SCHOOL,10 CLEMENTI AVENUE 3 CLEMENTI TOWN SECONDARY SCHOOL SINGAPORE 129904,129904,20065.2210438633,33091.2638894655,1.31553912945073,103.762020598524,Clementi Town Secondary School
139,LEARNING LEAP PTE LTD (FRONTIER PRIMARY SCHOOL),20,JURONG WEST STREET 61,LEARNING LEAP PTE LTD (FRONTIER PRIMARY SCHOOL),20 JURONG WEST STREET 61 LEARNING LEAP PTE LTD (FRONTIER PRIMARY SCHOOL) SINGAPORE 648200,648200,13127.742393123,35425.1252935641,1.3366431119298,103.699682818103,Frontier Primary School
140,FRONTIER PRIMARY SCHOOL,20,JURONG WEST STREET 61,FRONTIER PRIMARY SCHOOL,20 JURONG WEST STREET 61 FRONTIER PRIMARY SCHOOL SINGAPORE 648200,648200,13129.8467444237,35399.679120725,1.33641298743234,103.69970173931,Frontier Primary School
141,ZHANGDE PRIMARY SCHOOL,51,JALAN MEMBINA,ZHANGDE PRIMARY SCHOOL,51 JALAN MEMBINA ZHANGDE PRIMARY SCHOOL SINGAPORE 169485,169485,27180.1468993286,29627.1075303145,1.28421153335379,103.825951875662,Zhangde Primary School
142,FUCHUN SECONDARY SCHOOL,21,WOODLANDS AVENUE 1,FUCHUN SECONDARY SCHOOL,21 WOODLANDS AVENUE 1 FUCHUN SECONDARY SCHOOL SINGAPORE 739062,739062,21802.2213575486,45825.6298548002,1.43070452883799,103.777625748539,Fuchun Secondary School
143,WOODLANDS RING SECONDARY SCHOOL,10,WOODLANDS RING ROAD,WOODLANDS RING SECONDARY SCHOOL,10 WOODLANDS RING ROAD WOODLANDS RING SECONDARY SCHOOL SINGAPORE 738239,738239,24308.6728630271,46465.1933193207,1.43648894729939,103.800148469692,Woodlands Secondary School
144,WOODLANDS SECONDARY SCHOOL,11,MARSILING ROAD,WOODLANDS SECONDARY SCHOOL,11 MARSILING ROAD WOODLANDS SECONDARY SCHOOL SINGAPORE 739111,739111,21464.012295193,46756.7632628027,1.43912528141356,103.774586410437,Woodlands Secondary School
145,CRESCENT GIRLS' SCHOOL,357,TANGLIN ROAD,CRESCENT GIRLS' SCHOOL,357 TANGLIN ROAD CRESCENT GIRLS' SCHOOL SINGAPORE 247961,247961,26244.4775918219,30634.2205088157,1.29331947077104,103.817544461755,Crescent Girls' School
146,NEW TOWN PRIMARY SCHOOL,300,TANGLIN HALT ROAD,NEW TOWN PRIMARY SCHOOL,300 TANGLIN HALT ROAD NEW TOWN PRIMARY SCHOOL SINGAPORE 148812,148812,24303.310102744,31333.338985689,1.29964188181021,103.80010216304,New Town Primary School
147,LEARNING LEAP PTE LTD (PEI TONG PRIMARY SCHOOL),15,CLEMENTI AVENUE 5,LEARNING LEAP PTE LTD (PEI TONG PRIMARY SCHOOL),15 CLEMENTI AVENUE 5 LEARNING LEAP PTE LTD (PEI TONG PRIMARY SCHOOL) SINGAPORE 129857,129857,20668.2404885115,33215.772784153,1.31666529308968,103.767438999533,Pei Tong Primary School
148,PEI TONG PRIMARY SCHOOL,15,CLEMENTI AVENUE 5,PEI TONG PRIMARY SCHOOL,15 CLEMENTI AVENUE 5 PEI TONG PRIMARY SCHOOL SINGAPORE 129857,129857,20686.1367668323,33164.0863881912,1.31619786415976,103.767599818844,Pei Tong Primary School
149,CHANGKAT CHANGI SECONDARY SCHOOL,23,SIMEI STREET 3,CHANGKAT CHANGI SECONDARY SCHOOL,23 SIMEI STREET 3 CHANGKAT CHANGI SECONDARY SCHOOL SINGAPORE 529894,529894,41346.5926023414,35741.6438345015,1.33950630072876,103.953245525564,Changkat Changi Secondary School
150,GAN ENG SENG PRIMARY SCHOOL,100,REDHILL CLOSE,GAN ENG SENG PRIMARY SCHOOL,100 REDHILL CLOSE GAN ENG SENG PRIMARY SCHOOL SINGAPORE 158901,158901,26022.2170935348,29780.10807156,1.28559516494962,103.815547410064,Gan Eng Seng Primary School
151,PRESBYTERIAN HIGH SCHOOL,5209,ANG MO KIO AVENUE 6,PRESBYTERIAN HIGH SCHOOL,5209 ANG MO KIO AVENUE 6 PRESBYTERIAN HIGH SCHOOL SINGAPORE 569845,569845,29094.0439036526,40441.3768212926,1.38201194250223,103.843149382823,Presbyterian High School
152,BEDOK GREEN SECONDARY SCHOOL,360,BEDOK NORTH AVENUE 3,BEDOK GREEN SECONDARY SCHOOL,360 BEDOK NORTH AVENUE 3 BEDOK GREEN SECONDARY SCHOOL SINGAPORE 469722,469722,39319.2390878517,35190.1334154308,1.33451947288431,103.935028383346,Bedok Green Secondary School
153,YUAN CHING SECONDARY SCHOOL,103,YUAN CHING ROAD,YUAN CHING SECONDARY SCHOOL,103 YUAN CHING ROAD YUAN CHING SECONDARY SCHOOL SINGAPORE 618654,618654,15488.8783984222,36018.0484284926,1.34200635764467,103.72089870437,Yuan Ching Secondary School
154,MERIDIAN PRIMARY SCHOOL,20,PASIR RIS STREET 71,MERIDIAN PRIMARY SCHOOL,20 PASIR RIS STREET 71 MERIDIAN PRIMARY SCHOOL SINGAPORE 518798,518798,39303.5458344575,39724.6885971073,1.37552831658484,103.934889078518,Meridian Primary School
155,HORIZON PRIMARY SCHOOL,61,EDGEDALE PLAINS,HORIZON PRIMARY SCHOOL,61 EDGEDALE PLAINS HORIZON PRIMARY SCHOOL SINGAPORE 828819,828819,36912.5247354358,42380.7999361996,1.399550034492,103.913404855665,Horizon Primary School
156,SAINT ANDREW'S JUNIOR SCHOOL,2,FRANCIS THOMAS DRIVE,SAINT ANDREW'S JUNIOR SCHOOL,2 FRANCIS THOMAS DRIVE SAINT ANDREW'S JUNIOR SCHOOL SINGAPORE 359337,359337,31538.8499082169,34845.2692709584,1.33140255308868,103.865117134385,St. Andrew's Junior School
157,WOODLANDS RING PRIMARY SCHOOL,11,WOODLANDS RING ROAD,WOODLANDS RING PRIMARY SCHOOL,11 WOODLANDS RING ROAD WOODLANDS RING PRIMARY SCHOOL SINGAPORE 738240,738240,24006.7839585366,46295.2823582534,1.43495229315857,103.797435733144,Woodlands Ring Primary School
158,PUNGGOL SECONDARY SCHOOL,51,EDGEFIELD PLAINS,PUNGGOL SECONDARY SCHOOL,51 EDGEFIELD PLAINS PUNGGOL SECONDARY SCHOOL SINGAPORE 828870,828870,36446.0969829671,42658.0347204488,1.40205738421399,103.909213706482,Punggol Secondary School
159,SEMBAWANG SECONDARY SCHOOL,30,SEMBAWANG CRESCENT,SEMBAWANG SECONDARY SCHOOL,30 SEMBAWANG CRESCENT SEMBAWANG SECONDARY SCHOOL SINGAPORE 757704,757704,26166.5553010562,47441.1161091775,1.44531502131387,103.816843258118,Sembawang Secondary School
160,MERIDIAN SECONDARY SCHOOL,31,PASIR RIS STREET 51,MERIDIAN SECONDARY SCHOOL,31 PASIR RIS STREET 51 MERIDIAN SECONDARY SCHOOL SINGAPORE 518901,518901,40870.9016361358,38809.035507232,1.3672468492013,103.948972483629,Meridian Secondary School
161,FAIRFIELD METHODIST SCHOOL (SECONDARY),102,DOVER ROAD,FAIRFIELD METHODIST SCHOOL (SECONDARY),102 DOVER ROAD FAIRFIELD METHODIST SCHOOL (SECONDARY) SINGAPORE 139649,139649,22522.3772030193,31553.6179904211,1.30163374395823,103.784099647149,Fairfield Methodist Secondary School
162,LEARNING LEAP PTE LTD [ANGSANA PRIMARY SCHOOL],3,TAMPINES STREET 22,LEARNING LEAP PTE LTD [ANGSANA PRIMARY SCHOOL],3 TAMPINES STREET 22 LEARNING LEAP PTE LTD [ANGSANA PRIMARY SCHOOL] SINGAPORE 529366,529366,41160.8615044914,36732.3202990014,1.34846568919477,103.951577056231,Angsana Primary School
163,ANGSANA PRIMARY SCHOOL,3,TAMPINES STREET 22,ANGSANA PRIMARY SCHOOL,3 TAMPINES STREET 22 ANGSANA PRIMARY SCHOOL SINGAPORE 529366,529366,41150.3668378368,36712.2303788289,1.34828400809545,103.951482746538,Angsana Primary School
164,ANGSANA PRIMARY SCHOOL,51,TAMPINES STREET 61,ANGSANA PRIMARY SCHOOL,51 TAMPINES STREET 61 ANGSANA PRIMARY SCHOOL SINGAPORE 528565,528565,39754.5222957945,38406.3864220977,1.36360590588314,103.9389409004,Angsana Primary School
165,SCHOOL OF THE ARTS (SOTA),1,ZUBIR SAID DRIVE,SCHOOL OF THE ARTS (SOTA),1 ZUBIR SAID DRIVE SCHOOL OF THE ARTS (SOTA) SINGAPORE 227968,227968,29710.4144953834,31302.6820281129,1.29936480411316,103.848687419363,School of the Arts
166,NYU TISCH SCHOOL OF THE ARTS ASIA,3,KAY SIANG ROAD,NYU TISCH SCHOOL OF THE ARTS ASIA,3 KAY SIANG ROAD NYU TISCH SCHOOL OF THE ARTS ASIA SINGAPORE 248923,248923,25878.7037793742,30993.4632470775,1.29656831288548,103.814257803885,School of the Arts
167,RIVERVALE PRIMARY SCHOOL,80,RIVERVALE DRIVE,RIVERVALE PRIMARY SCHOOL,80 RIVERVALE DRIVE RIVERVALE PRIMARY SCHOOL SINGAPORE 545092,545092,35928.1770641869,41701.8312798403,1.39340997767762,103.904559511997,Rivervale Primary School
168,EDGEFIELD SECONDARY SCHOOL,36,PUNGGOL FIELD,EDGEFIELD SECONDARY SCHOOL,36 PUNGGOL FIELD EDGEFIELD SECONDARY SCHOOL SINGAPORE 828814,828814,35719.8105087345,42496.0989190713,1.40059309981824,103.902687385465,Edgefield Secondary School
169,PUNGGOL VIEW PRIMARY SCHOOL,9,PUNGGOL PLACE,PUNGGOL VIEW PRIMARY SCHOOL,9 PUNGGOL PLACE PUNGGOL VIEW PRIMARY SCHOOL SINGAPORE 828845,828845,35994.5599585725,42999.5250743832,1.40514582647962,103.905156371376,Punggol Primary School
170,KNOWLEDGE PARK EDUCARE PTE LTD (PUNGGOL COVE PRIMARY SCHOOL),52,SUMANG WALK,KNOWLEDGE PARK EDUCARE PTE LTD (PUNGGOL COVE PRIMARY SCHOOL),52 SUMANG WALK KNOWLEDGE PARK EDUCARE PTE LTD (PUNGGOL COVE PRIMARY SCHOOL) SINGAPORE 828674,828674,35298.7904222226,43711.4672181848,1.41158455562454,103.89890448429,Punggol Primary School
171,PUNGGOL COVE PRIMARY SCHOOL,52,SUMANG WALK,PUNGGOL COVE PRIMARY SCHOOL,52 SUMANG WALK PUNGGOL COVE PRIMARY SCHOOL SINGAPORE 828674,828674,35287.5991076548,43713.0898242556,1.41159923273069,103.898803921164,Punggol Primary School
172,PUNGGOL PRIMARY SCHOOL,61,HOUGANG AVENUE 8,PUNGGOL PRIMARY SCHOOL,61 HOUGANG AVENUE 8 PUNGGOL PRIMARY SCHOOL SINGAPORE 538787,538787,34809.5016854042,39975.1199013237,1.37779451191095,103.894506933668,Punggol Primary School
173,AFTERSCHOOL @ PUNGGOL PRIMARY SCHOOL,61,HOUGANG AVENUE 8,AFTERSCHOOL @ PUNGGOL PRIMARY SCHOOL,61 HOUGANG AVENUE 8 AFTERSCHOOL @ PUNGGOL PRIMARY SCHOOL SINGAPORE 538787,538787,34827.3316768408,40020.0263597388,1.37820062547641,103.894667159512,Punggol Primary School
174,PUNGGOL GREEN PRIMARY SCHOOL,98,PUNGGOL WALK,PUNGGOL GREEN PRIMARY SCHOOL,98 PUNGGOL WALK PUNGGOL GREEN PRIMARY SCHOOL SINGAPORE 828772,828772,35287.340952022,42637.5237120874,1.40187220643293,103.898801330302,Punggol Primary School
175,LEARNING LEAP PTE LTD (PUNGGOL GREEN PRIMARY SCHOOL),98,PUNGGOL WALK,LEARNING LEAP PTE LTD (PUNGGOL GREEN PRIMARY SCHOOL),98 PUNGGOL WALK LEARNING LEAP PTE LTD (PUNGGOL GREEN PRIMARY SCHOOL) SINGAPORE 828772,828772,35286.5548319491,42621.3463525623,1.40172590450528,103.898794262307,Punggol Primary School
176,JIEMIN PRIMARY SCHOOL,2,YISHUN STREET 71,JIEMIN PRIMARY SCHOOL,2 YISHUN STREET 71 JIEMIN PRIMARY SCHOOL SINGAPORE 768515,768515,27678.0421859771,45492.0549418237,1.42768847665227,103.830425490093,Jiemin Primary School
177,COMPASSVALE SECONDARY SCHOOL,51,COMPASSVALE CRESCENT,COMPASSVALE SECONDARY SCHOOL,51 COMPASSVALE CRESCENT COMPASSVALE SECONDARY SCHOOL SINGAPORE 545083,545083,35403.746108626,42003.7810229771,1.39614083952009,103.899847164494,Compassvale Secondary School
178,BARTLEY SECONDARY SCHOOL,10,JALAN BUNGA RAMPAI,BARTLEY SECONDARY SCHOOL,10 JALAN BUNGA RAMPAI BARTLEY SECONDARY SCHOOL SINGAPORE 538403,538403,33507.4424001053,35790.8945052791,1.33995415587811,103.882806211705,Bartley Secondary School
179,ANG MO KIO SECONDARY SCHOOL,6,ANG MO KIO STREET 22,ANG MO KIO SECONDARY SCHOOL,6 ANG MO KIO STREET 22 ANG MO KIO SECONDARY SCHOOL SINGAPORE 569362,569362,28983.3847605418,38818.7070966065,1.36733710171069,103.842154973672,Ang Mo Kio Secondary School
180,RIVERSIDE SECONDARY SCHOOL,3,WOODLANDS STREET 81,RIVERSIDE SECONDARY SCHOOL,3 WOODLANDS STREET 81 RIVERSIDE SECONDARY SCHOOL SINGAPORE 738524,738524,22991.0453311065,46975.256819712,1.44110157139127,103.78830823641,Riverside Secondary School
181,YIO CHU KANG PRIMARY SCHOOL,1,HOUGANG STREET 51,YIO CHU KANG PRIMARY SCHOOL,1 HOUGANG STREET 51 YIO CHU KANG PRIMARY SCHOOL SINGAPORE 538720,538720,33823.1315680202,39990.3703038469,1.37793264345276,103.885643682171,Yio Chu Kang Primary School
182,WHITE SANDS PRIMARY SCHOOL,2,PASIR RIS STREET 11,WHITE SANDS PRIMARY SCHOOL,2 PASIR RIS STREET 11 WHITE SANDS PRIMARY SCHOOL SINGAPORE 519075,519075,42200.4040547684,38622.2636750303,1.36555714668553,103.960918869319,White Sands Primary School
183,LEARNING LEAP PTE LTD (WHITE SANDS PRIMARY SCHOOL),2,PASIR RIS STREET 11,LEARNING LEAP PTE LTD (WHITE SANDS PRIMARY SCHOOL),2 PASIR RIS STREET 11 LEARNING LEAP PTE LTD (WHITE SANDS PRIMARY SCHOOL) SINGAPORE 519075,519075,42194.0540739279,38630.9946565423,1.36563610941695,103.960861814678,White Sands Primary School
184,PASIR RIS PRIMARY SCHOOL,5,PASIR RIS STREET 21,PASIR RIS PRIMARY SCHOOL,5 PASIR RIS STREET 21 PASIR RIS PRIMARY SCHOOL SINGAPORE 518968,518968,42410.5136828674,39380.9927665386,1.37241870245531,103.962807212116,Pasir Ris Primary School
185,WATERWAY PRIMARY SCHOOL,70,PUNGGOL DRIVE,WATERWAY PRIMARY SCHOOL,70 PUNGGOL DRIVE WATERWAY PRIMARY SCHOOL SINGAPORE 828802,828802,37493.0794339096,42300.9820826855,1.39882800626578,103.918621581556,Waterway Primary School
186,KNOWLEDGE PARK EDUCARE PTE LTD (PUNGGOL COVE PRIMARY SCHOOL),52,SUMANG WALK,KNOWLEDGE PARK EDUCARE PTE LTD (PUNGGOL COVE PRIMARY SCHOOL),52 SUMANG WALK KNOWLEDGE PARK EDUCARE PTE LTD (PUNGGOL COVE PRIMARY SCHOOL) SINGAPORE 828674,828674,35298.7904222226,43711.4672181848,1.41158455562454,103.89890448429,Punggol Cove Primary School
187,PUNGGOL COVE PRIMARY SCHOOL,52,SUMANG WALK,PUNGGOL COVE PRIMARY SCHOOL,52 SUMANG WALK PUNGGOL COVE PRIMARY SCHOOL SINGAPORE 828674,828674,35287.5991076548,43713.0898242556,1.41159923273069,103.898803921164,Punggol Cove Primary School
188,CHIJ SAINT JOSEPH'S CONVENT,62,SENGKANG EAST WAY,CHIJ SAINT JOSEPH'S CONVENT,62 SENGKANG EAST WAY CHIJ SAINT JOSEPH'S CONVENT SINGAPORE 548595,548595,35695.0897989292,41518.518049065,1.39175222260369,103.902464991543,CHIJ St. Joseph's Convent
189,CANOSSA CATHOLIC PRIMARY SCHOOL,1,SALLIM ROAD,CANOSSA CATHOLIC PRIMARY SCHOOL,1 SALLIM ROAD CANOSSA CATHOLIC PRIMARY SCHOOL SINGAPORE 387621,387621,33443.1189393327,34319.1509661097,1.32664424544839,103.882227964852,Canossa Catholic Primary School
190,NORTH VISTA SECONDARY SCHOOL,11,RIVERVALE LINK,NORTH VISTA SECONDARY SCHOOL,11 RIVERVALE LINK NORTH VISTA SECONDARY SCHOOL SINGAPORE 545081,545081,35330.5266452944,40344.0974890441,1.381131285358,103.899188813886,North Vista Secondary School
191,TANJONG KATONG PRIMARY SCHOOL,10,SERAYA ROAD,TANJONG KATONG PRIMARY SCHOOL,10 SERAYA ROAD TANJONG KATONG PRIMARY SCHOOL SINGAPORE 437259,437259,35431.3472408336,31952.5175080001,1.30524084264265,103.900092702031,Tanjong Katong Primary School
192,AFTERSCHOOL @ TANJONG KATONG PRIMARY SCHOOL,10,SERAYA ROAD,AFTERSCHOOL @ TANJONG KATONG PRIMARY SCHOOL,10 SERAYA ROAD AFTERSCHOOL @ TANJONG KATONG PRIMARY SCHOOL SINGAPORE 437259,437259,35421.0272507127,31924.2153390218,1.30498489044822,103.899999965407,Tanjong Katong Primary School
193,MEE TOH SCHOOL,21,EDGEDALE PLAINS,MEE TOH SCHOOL,21 EDGEDALE PLAINS MEE TOH SCHOOL SINGAPORE 828867,828867,36376.6569616906,41835.4725095034,1.3946184538592,103.908589494228,Mee Toh School
194,MARSILING SECONDARY SCHOOL,12,MARSILING ROAD,MARSILING SECONDARY SCHOOL,12 MARSILING ROAD MARSILING SECONDARY SCHOOL SINGAPORE 739110,739110,21622.2165990025,46482.4188591223,1.43664424769955,103.776008090454,Marsiling Secondary School
195,EVERGREEN PRIMARY SCHOOL,31,WOODLANDS CIRCLE,EVERGREEN PRIMARY SCHOOL,31 WOODLANDS CIRCLE EVERGREEN PRIMARY SCHOOL SINGAPORE 738908,738908,23688.7552570887,47312.692020528,1.44415332824735,103.794577787757,Evergreen Primary School
196,NEW TOWN SECONDARY SCHOOL,1020,DOVER ROAD,NEW TOWN SECONDARY SCHOOL,1020 DOVER ROAD NEW TOWN SECONDARY SCHOOL SINGAPORE 139657,139657,21308.1010938296,32453.9625329748,1.30977590011357,103.77318863421,New Town Secondary School
197,OPERA ESTATE PRIMARY SCHOOL,48,FIDELIO STREET,OPERA ESTATE PRIMARY SCHOOL,48 FIDELIO STREET OPERA ESTATE PRIMARY SCHOOL SINGAPORE 458436,458436,38068.3909911709,33509.3080883529,1.31931914436255,103.923788259248,Opera Estate Primary School
198,KNOWLEDGE PARK EDUCARE PTE LTE (OPERA ESTATE PRIMARY SCHOOL),48,FIDELIO STREET,KNOWLEDGE PARK EDUCARE PTE LTE (OPERA ESTATE PRIMARY SCHOOL),48 FIDELIO STREET KNOWLEDGE PARK EDUCARE PTE LTE (OPERA ESTATE PRIMARY SCHOOL) SINGAPORE 458436,458436,38064.4274895079,33581.1396132912,1.31996876377748,103.923752668632,Opera Estate Primary School
199,CHIJ (KELLOCK),1,BUKIT TERESA ROAD,CHIJ (KELLOCK),1 BUKIT TERESA ROAD CHIJ (KELLOCK) SINGAPORE 099757,099757,27425.6197932558,28611.0557805933,1.275022722964,103.828157564896,CHIJ (Kellock)
200,YMCA STUDENT CARE CENTRE @ CHIJ (KELLOCK),1,BUKIT TERESA ROAD,YMCA STUDENT CARE CENTRE @ CHIJ (KELLOCK),1 BUKIT TERESA ROAD YMCA STUDENT CARE CENTRE @ CHIJ (KELLOCK) SINGAPORE 099757,099757,27402.9654484307,28579.8478246406,1.27474048872023,103.827954007978,CHIJ (Kellock)
201,CHIJ SAINT THERESA'S CONVENT,160,LOWER DELTA ROAD,CHIJ SAINT THERESA'S CONVENT,160 LOWER DELTA ROAD CHIJ SAINT THERESA'S CONVENT SINGAPORE 099138,099138,26789.3781491434,28647.4426490944,1.27535177510054,103.822440701642,CHIJ St. Theresa's Convent
202,FENGSHAN PRIMARY SCHOOL,307,BEDOK NORTH ROAD,FENGSHAN PRIMARY SCHOOL,307 BEDOK NORTH ROAD FENGSHAN PRIMARY SCHOOL SINGAPORE 469680,469680,38949.9907227494,34668.9245775398,1.32980598760785,103.931710293058,Fengshan Primary School
203,GREENDALE PRIMARY SCHOOL,50,EDGEDALE PLAINS,GREENDALE PRIMARY SCHOOL,50 EDGEDALE PLAINS GREENDALE PRIMARY SCHOOL SINGAPORE 828848,828848,36793.4333255449,42041.5424514245,1.39648195114256,103.91233462071,Greendale Primary School
204,"SCHOOL OF SCIENCE AND TECHNOLOGY, SINGAPORE",1,TECHNOLOGY DRIVE,"SCHOOL OF SCIENCE AND TECHNOLOGY, SINGAPORE","1 TECHNOLOGY DRIVE SCHOOL OF SCIENCE AND TECHNOLOGY, SINGAPORE SINGAPORE 138572",138572,21399.6898937989,32802.5152550135,1.31292810600277,103.774011529322,"School of Science and Technology, Singapore"
205,ENDEAVOUR PRIMARY SCHOOL,10,ADMIRALTY LINK,ENDEAVOUR PRIMARY SCHOOL,10 ADMIRALTY LINK ENDEAVOUR PRIMARY SCHOOL SINGAPORE 757521,757521,26232.5507349819,48405.7003912628,1.45403837499301,103.817436231731,Endeavour Primary School
206,NATIONAL JUNIOR COLLEGE,37,HILLCREST ROAD,NATIONAL JUNIOR COLLEGE,37 HILLCREST ROAD NATIONAL JUNIOR COLLEGE SINGAPORE 288913,288913,24749.4869699022,34722.5671630222,1.33029291072172,103.804110905425,National Junior College
207,NATIONAL JUNIOR COLLEGE BOARDING SCHOOL,41,HILLCREST ROAD,NATIONAL JUNIOR COLLEGE BOARDING SCHOOL,41 HILLCREST ROAD NATIONAL JUNIOR COLLEGE BOARDING SCHOOL SINGAPORE 288916,288916,24807.6663023923,34903.1848179717,1.33192635877989,103.804633660267,National Junior College
208,MONTFORT SECONDARY SCHOOL,50,HOUGANG AVENUE 8,MONTFORT SECONDARY SCHOOL,50 HOUGANG AVENUE 8 MONTFORT SECONDARY SCHOOL SINGAPORE 538785,538785,34188.6869969647,39551.2492366415,1.37396131656912,103.888928372577,Montfort Secondary School
209,BUKIT PANJANG PRIMARY SCHOOL,109,CASHEW ROAD,BUKIT PANJANG PRIMARY SCHOOL,109 CASHEW ROAD BUKIT PANJANG PRIMARY SCHOOL SINGAPORE 679676,679676,20883.8530479269,39513.7297099214,1.37362179302436,103.769374904025,Bukit Panjang Primary School
210,CHIJ (KATONG) PRIMARY,17,MARTIA ROAD,CHIJ (KATONG) PRIMARY,17 MARTIA ROAD CHIJ (KATONG) PRIMARY SINGAPORE 424821,424821,36656.9804726057,32090.1643723603,1.30648535277087,103.911105620496,CHIJ (Katong) Primary
211,RIVERSIDE PRIMARY SCHOOL,110,WOODLANDS CRESCENT,RIVERSIDE PRIMARY SCHOOL,110 WOODLANDS CRESCENT RIVERSIDE PRIMARY SCHOOL SINGAPORE 737803,737803,24496.0361921666,47632.6851746552,1.44704734253719,103.801831963297,Riverside Primary School
212,MERCU STUDENT CARE CENTRE @ RIVERSIDE PRIMARY SCHOOL,110,WOODLANDS CRESCENT,MERCU STUDENT CARE CENTRE @ RIVERSIDE PRIMARY SCHOOL,110 WOODLANDS CRESCENT MERCU STUDENT CARE CENTRE @ RIVERSIDE PRIMARY SCHOOL SINGAPORE 737803,737803,24502.3868994378,47627.9217809848,1.44700426493785,103.801889031334,Riverside Primary School
213,ALEXANDRA PRIMARY SCHOOL,2A,PRINCE CHARLES CRESCENT,ALEXANDRA PRIMARY SCHOOL,2A PRINCE CHARLES CRESCENT ALEXANDRA PRIMARY SCHOOL SINGAPORE 159016,159016,27010.1854815315,30414.7169698272,1.29133439161334,103.824424680531,Alexandra Primary School
214,COMMIT LEARNING SCHOOLHOUSE @ FAIRFIELD METHODIST SCHOOL (PRIMARY),100,DOVER ROAD,COMMIT LEARNING SCHOOLHOUSE @ FAIRFIELD METHODIST SCHOOL (PRIMARY),100 DOVER ROAD COMMIT LEARNING SCHOOLHOUSE @ FAIRFIELD METHODIST SCHOOL (PRIMARY) SINGAPORE 139648,139648,22673.2819890725,31484.0275675338,1.30100441916733,103.785455606827,Fairfield Methodist School (Primary)
215,FAIRFIELD METHODIST SCHOOL (PRIMARY),100,DOVER ROAD,FAIRFIELD METHODIST SCHOOL (PRIMARY),100 DOVER ROAD FAIRFIELD METHODIST SCHOOL (PRIMARY) SINGAPORE 139648,139648,22671.3515878748,31432.7656800412,1.30054082453424,103.785438270044,Fairfield Methodist School (Primary)
216,CHRIST CHURCH SECONDARY SCHOOL,20,WOODLANDS DRIVE 17,CHRIST CHURCH SECONDARY SCHOOL,20 WOODLANDS DRIVE 17 CHRIST CHURCH SECONDARY SCHOOL SINGAPORE 737924,737924,23563.3391703926,45368.1754093207,1.42656780901455,103.793451105242,Christ Church Secondary School
217,SENGKANG GREEN PRIMARY SCHOOL,15,FERNVALE ROAD,SENGKANG GREEN PRIMARY SCHOOL,15 FERNVALE ROAD SENGKANG GREEN PRIMARY SCHOOL SINGAPORE 797636,797636,32662.8166451091,41639.3984784018,1.39284606680477,103.875217666486,Sengkang Green Primary School
218,TANGLIN SECONDARY SCHOOL,301,WEST COAST ROAD,TANGLIN SECONDARY SCHOOL,301 WEST COAST ROAD TANGLIN SECONDARY SCHOOL SINGAPORE 127391,127391,19635.3712416776,32445.8021634929,1.30970169234123,103.758158358303,Tanglin Secondary School
219,VICTORIA SCHOOL,2,SIGLAP LINK,VICTORIA SCHOOL,2 SIGLAP LINK VICTORIA SCHOOL SINGAPORE 448880,448880,38535.0431807386,32336.5539019071,1.3087130270751,103.927980966639,Victoria School
220,VICTORIA SCHOOL,4,SIGLAP LINK,VICTORIA SCHOOL,4 SIGLAP LINK VICTORIA SCHOOL SINGAPORE 448879,448879,38559.1474527884,32291.7732675001,1.30830803913148,103.928197539607,Victoria School
221,LEARNING STUDIO EDUCARE @ CHANGKAT PRIMARY SCHOOL,11,SIMEI STREET 3,LEARNING STUDIO EDUCARE @ CHANGKAT PRIMARY SCHOOL,11 SIMEI STREET 3 LEARNING STUDIO EDUCARE @ CHANGKAT PRIMARY SCHOOL SINGAPORE 529896,529896,41238.4638929376,35793.2822557092,1.33997334692002,103.952273949753,Changkat Primary School
222,CHANGKAT PRIMARY SCHOOL,11,SIMEI STREET 3,CHANGKAT PRIMARY SCHOOL,11 SIMEI STREET 3 CHANGKAT PRIMARY SCHOOL SINGAPORE 529896,529896,41216.8906296864,35821.8419446945,1.34023163951633,103.952080114035,Changkat Primary School
223,BEACON PRIMARY SCHOOL,36,BUKIT PANJANG RING ROAD,BEACON PRIMARY SCHOOL,36 BUKIT PANJANG RING ROAD BEACON PRIMARY SCHOOL SINGAPORE 679944,679944,21357.64699852,40655.688190354,1.38394936211823,103.773632022975,Beacon Primary School
224,NANYANG PRIMARY SCHOOL,52,KING'S ROAD,NANYANG PRIMARY SCHOOL,52 KING'S ROAD NANYANG PRIMARY SCHOOL SINGAPORE 268097,268097,25154.4872114761,33678.1373927556,1.32084749904532,103.807750155296,Nanyang Primary School
225,NANYANG PRIMARY SCHOOL,51,CORONATION ROAD,NANYANG PRIMARY SCHOOL,51 CORONATION ROAD NANYANG PRIMARY SCHOOL SINGAPORE 269460,269460,25011.8029676573,33707.7719583772,1.32111548993736,103.806468059795,Nanyang Primary School
226,COMMIT LEARNING SCHOOLHOUSE @ CATHOLIC HIGH SCHOOL (PRIMARY),9,BISHAN STREET 22,COMMIT LEARNING SCHOOLHOUSE @ CATHOLIC HIGH SCHOOL (PRIMARY),9 BISHAN STREET 22 COMMIT LEARNING SCHOOLHOUSE @ CATHOLIC HIGH SCHOOL (PRIMARY) SINGAPORE 579767,579767,29212.1656484166,37386.9490167908,1.35438878373608,103.844210670766,Catholic High School
227,CATHOLIC HIGH SCHOOL,9,BISHAN STREET 22,CATHOLIC HIGH SCHOOL,9 BISHAN STREET 22 CATHOLIC HIGH SCHOOL SINGAPORE 579767,579767,29286.0617525242,37423.9135497604,1.3547230747166,103.844874676599,Catholic High School
228,YUHUA SECONDARY SCHOOL,35,JURONG WEST STREET 41,YUHUA SECONDARY SCHOOL,35 JURONG WEST STREET 41 YUHUA SECONDARY SCHOOL SINGAPORE 649406,649406,15687.9488993762,36590.8085158002,1.34718626876968,103.722687235839,Yuhua Secondary School
229,YUSOF ISHAK SECONDARY SCHOOL,8,SUMANG WALK,YUSOF ISHAK SECONDARY SCHOOL,8 SUMANG WALK YUSOF ISHAK SECONDARY SCHOOL SINGAPORE 828676,828676,35006.1961496361,43197.5583218038,1.40693702458178,103.896275149571,Yusof Ishak Secondary School
230,CHIJ PRIMARY (TOA PAYOH),628,LORONG 1 TOA PAYOH,CHIJ PRIMARY (TOA PAYOH),628 LORONG 1 TOA PAYOH CHIJ PRIMARY (TOA PAYOH) SINGAPORE 319765,319765,28949.1537291808,34994.5345916729,1.33275264711587,103.841847263786,CHIJ Primary (Toa Payoh)
231,YMCA STUDENT CARE CENTRE @ CHIJ PRIMARY (TOA PAYOH),628,LORONG 1 TOA PAYOH,YMCA STUDENT CARE CENTRE @ CHIJ PRIMARY (TOA PAYOH),628 LORONG 1 TOA PAYOH YMCA STUDENT CARE CENTRE @ CHIJ PRIMARY (TOA PAYOH) SINGAPORE 319765,319765,28949.1543042725,34994.5335020255,1.33275263726147,103.841847268953,CHIJ Primary (Toa Payoh)
232,PAYA LEBAR METHODIST GIRLS' SCHOOL (SECONDARY),296,LORONG AH SOO,PAYA LEBAR METHODIST GIRLS' SCHOOL (SECONDARY),296 LORONG AH SOO PAYA LEBAR METHODIST GIRLS' SCHOOL (SECONDARY) SINGAPORE 536742,536742,33764.9220583495,37008.7061571106,1.35096755912522,103.885120050588,Methodist Girls' School (Secondary)
233,RULANG PRIMARY SCHOOL,6,JURONG WEST STREET 52,RULANG PRIMARY SCHOOL,6 JURONG WEST STREET 52 RULANG PRIMARY SCHOOL SINGAPORE 649295,649295,15217.2735802168,36541.3390983045,1.34673868889096,103.718457955487,Rulang Primary School
234,BIG HEART STUDENT CARE (CONCORD PRIMARY SCHOOL),3,CHOA CHU KANG AVENUE 4,BIG HEART STUDENT CARE (CONCORD PRIMARY SCHOOL),3 CHOA CHU KANG AVENUE 4 BIG HEART STUDENT CARE (CONCORD PRIMARY SCHOOL) SINGAPORE 689814,689814,17231.3486815896,40248.4434567168,1.38026516111464,103.736554295636,Concord Primary School
235,CONCORD PRIMARY SCHOOL,3,CHOA CHU KANG AVENUE 4,CONCORD PRIMARY SCHOOL,3 CHOA CHU KANG AVENUE 4 CONCORD PRIMARY SCHOOL SINGAPORE 689814,689814,17194.7500582738,40220.0161901619,1.38000806197242,103.736225440727,Concord Primary School
236,PIONEER PRIMARY SCHOOL,31,JURONG WEST STREET 91,PIONEER PRIMARY SCHOOL,31 JURONG WEST STREET 91 PIONEER PRIMARY SCHOOL SINGAPORE 649037,649037,11801.9417791683,35688.3182758801,1.33902264667589,103.687769623983,Pioneer Primary School
237,RAFFLES INSTITUTION LANE,,RAFFLES INSTITUTION LANE,NIL,RAFFLES INSTITUTION LANE,NIL,29215.2811090525,36471.1904138699,1.34610699067776,103.844238724617,Raffles Institution
238,RAFFLES INSTITUTION,1,RAFFLES INSTITUTION LANE,RAFFLES INSTITUTION,1 RAFFLES INSTITUTION LANE RAFFLES INSTITUTION SINGAPORE 575954,575954,29397.4034992037,36480.122403916,1.34618775847486,103.845875110532,Raffles Institution
239,RAFFLES INSTITUTION (DINING HALL),1,RAFFLES INSTITUTION LANE,RAFFLES INSTITUTION (DINING HALL),1 RAFFLES INSTITUTION LANE RAFFLES INSTITUTION (DINING HALL) SINGAPORE 575954,575954,29281.8145490494,36557.2218292747,1.34688502341737,103.844836475867,Raffles Institution
240,RAFFLES INSTITUTION (MARSHALL BLOCK),1,RAFFLES INSTITUTION LANE,RAFFLES INSTITUTION (MARSHALL BLOCK),1 RAFFLES INSTITUTION LANE RAFFLES INSTITUTION (MARSHALL BLOCK) SINGAPORE 575954,575954,29355.0085570058,36419.169827953,1.34563652699047,103.845494163126,Raffles Institution
241,RAFFLES INSTITUTION (SHEARES BLOCK),1,RAFFLES INSTITUTION LANE,RAFFLES INSTITUTION (SHEARES BLOCK),1 RAFFLES INSTITUTION LANE RAFFLES INSTITUTION (SHEARES BLOCK) SINGAPORE 575954,575954,29276.3973971987,36501.677687984,1.34638270218392,103.844787797061,Raffles Institution
242,RAFFLES INSTITUTION (YUSOF ISHAK BLOCK),1,RAFFLES INSTITUTION LANE,RAFFLES INSTITUTION (YUSOF ISHAK BLOCK),1 RAFFLES INSTITUTION LANE RAFFLES INSTITUTION (YUSOF ISHAK BLOCK) SINGAPORE 575954,575954,29396.8823753279,36486.8899618592,1.34624896188677,103.845870428226,Raffles Institution
243,RAFFLES INSTITUTION BOARDING,1,RAFFLES INSTITUTION LANE,RAFFLES INSTITUTION BOARDING,1 RAFFLES INSTITUTION LANE RAFFLES INSTITUTION BOARDING SINGAPORE 575954,575954,29165.7161584599,36563.4896325395,1.34694171193172,103.843793260239,Raffles Institution
244,RAFFLES INSTITUTION (ADMINISTRATIVE CENTRE),1,RAFFLES INSTITUTION LANE,RAFFLES INSTITUTION (ADMINISTRATIVE CENTRE),1 RAFFLES INSTITUTION LANE RAFFLES INSTITUTION (ADMINISTRATIVE CENTRE) SINGAPORE 575954,575954,29146.4620281225,36491.4763483591,1.34629045013358,103.843620247231,Raffles Institution
245,RAFFLES INSTITUTION (ARTSPACE),1,RAFFLES INSTITUTION LANE,RAFFLES INSTITUTION (ARTSPACE),1 RAFFLES INSTITUTION LANE RAFFLES INSTITUTION (ARTSPACE) SINGAPORE 575954,575954,29253.9772660322,36623.6072359029,1.34748539060326,103.844586343411,Raffles Institution
246,RAFFLES INSTITUTION (AUDITORIUM),1,RAFFLES INSTITUTION LANE,RAFFLES INSTITUTION (AUDITORIUM),1 RAFFLES INSTITUTION LANE RAFFLES INSTITUTION (AUDITORIUM) SINGAPORE 575954,575954,29375.0509261759,36649.26840223,1.34771745576312,103.845674266587,Raffles Institution
247,YMCA STUDENT CARE CENTRE @ OASIS PRIMARY SCHOOL,71,EDGEFIELD PLAINS,YMCA STUDENT CARE CENTRE @ OASIS PRIMARY SCHOOL,71 EDGEFIELD PLAINS YMCA STUDENT CARE CENTRE @ OASIS PRIMARY SCHOOL SINGAPORE 828716,828716,36633.3703859271,42923.6562544368,1.4044595121197,103.910896590133,Oasis Primary School
248,OASIS PRIMARY SCHOOL,71,EDGEFIELD PLAINS,OASIS PRIMARY SCHOOL,71 EDGEFIELD PLAINS OASIS PRIMARY SCHOOL SINGAPORE 828716,828716,36658.2990973163,42941.8599344008,1.40462413200793,103.911120600638,Oasis Primary School
249,RED SWASTIKA SCHOOL,350,BEDOK NORTH AVENUE 3,RED SWASTIKA SCHOOL,350 BEDOK NORTH AVENUE 3 RED SWASTIKA SCHOOL SINGAPORE 469719,469719,39241.7795945574,35048.9817909673,1.33324297847732,103.934332314404,Red Swastika School
250,COMMIT LEARNING SCHOOLHOUSE @ RED SWASTIKA SCHOOL,350,BEDOK NORTH AVENUE 3,COMMIT LEARNING SCHOOLHOUSE @ RED SWASTIKA SCHOOL,350 BEDOK NORTH AVENUE 3 COMMIT LEARNING SCHOOLHOUSE @ RED SWASTIKA SCHOOL SINGAPORE 469719,469719,39240.1303829281,35138.9475005791,1.33405659580859,103.934317528484,Red Swastika School
251,AFTERSCHOOL @ RIVER VALLEY PRIMARY SCHOOL,2,RIVER VALLEY GREEN,AFTERSCHOOL @ RIVER VALLEY PRIMARY SCHOOL,2 RIVER VALLEY GREEN AFTERSCHOOL @ RIVER VALLEY PRIMARY SCHOOL SINGAPORE 237993,237993,28300.5267893467,30729.7527125087,1.29418347842837,103.836018941571,River Valley Primary School
252,RIVER VALLEY PRIMARY SCHOOL,2,RIVER VALLEY GREEN,RIVER VALLEY PRIMARY SCHOOL,2 RIVER VALLEY GREEN RIVER VALLEY PRIMARY SCHOOL SINGAPORE 237993,237993,28277.8483209386,30734.1542524323,1.2942232846169,103.835815165829,River Valley Primary School
253,WOODGROVE SECONDARY SCHOOL,3,WOODLANDS AVENUE 6,WOODGROVE SECONDARY SCHOOL,3 WOODLANDS AVENUE 6 WOODGROVE SECONDARY SCHOOL SINGAPORE 738990,738990,23852.2922348054,45561.7290254179,1.42831828137013,103.79604758539,Woodgrove Secondary School
254,HOLY INNOCENTS' HIGH SCHOOL,1191,UPPER SERANGOON ROAD,HOLY INNOCENTS' HIGH SCHOOL,1191 UPPER SERANGOON ROAD HOLY INNOCENTS' HIGH SCHOOL SINGAPORE 534786,534786,35020.0627604807,39284.0954767819,1.37154508822261,103.896398814264,Holy Innocents' High School
255,RADIN MAS PRIMARY SCHOOL,1,BUKIT PURMEI AVENUE,RADIN MAS PRIMARY SCHOOL,1 BUKIT PURMEI AVENUE RADIN MAS PRIMARY SCHOOL SINGAPORE 099840,099840,26983.8685896052,28603.9263991714,1.27495823622634,103.824188270373,Radin Mas Primary School
256,LIANHUA PRIMARY SCHOOL,2,BUKIT BATOK STREET 52,LIANHUA PRIMARY SCHOOL,2 BUKIT BATOK STREET 52 LIANHUA PRIMARY SCHOOL SINGAPORE 659243,659243,19191.1979939695,37370.8497486636,1.35424191127295,103.754165828711,Lianhua Primary School
257,ROSYTH SCHOOL,21,SERANGOON NORTH AVENUE 4,ROSYTH SCHOOL,21 SERANGOON NORTH AVENUE 4 ROSYTH SCHOOL SINGAPORE 555855,555855,32638.8043574626,39432.8315618001,1.37289067499064,103.875001549174,Rosyth School
258,KONG HWA SCHOOL,350,GUILLEMARD ROAD,KONG HWA SCHOOL,350 GUILLEMARD ROAD KONG HWA SCHOOL SINGAPORE 399772,399772,34124.7036575247,32588.943696009,1.31099674009193,103.888352029067,Kong Hwa School
259,NORTHBROOKS SECONDARY SCHOOL,585,YISHUN RING ROAD,NORTHBROOKS SECONDARY SCHOOL,585 YISHUN RING ROAD NORTHBROOKS SECONDARY SCHOOL SINGAPORE 768692,768692,29316.3687516721,44731.7859666422,1.42081285020652,103.845147332528,Northbrooks Secondary School
260,NAVAL BASE PRIMARY SCHOOL,7,YISHUN AVENUE 4,NAVAL BASE PRIMARY SCHOOL,7 YISHUN AVENUE 4 NAVAL BASE PRIMARY SCHOOL SINGAPORE 769028,769028,28609.3447617413,44233.5083953608,1.41630663159387,103.838794077233,Naval Base Primary School
261,HILLGROVE SECONDARY SCHOOL,10,BUKIT BATOK STREET 52,HILLGROVE SECONDARY SCHOOL,10 BUKIT BATOK STREET 52 HILLGROVE SECONDARY SCHOOL SINGAPORE 659250,659250,19059.9452109011,37204.3120635767,1.35273576615912,103.752986488399,Hillgrove Secondary School
262,SPRINGFIELD SECONDARY SCHOOL,30,TAMPINES AVENUE 8,SPRINGFIELD SECONDARY SCHOOL,30 TAMPINES AVENUE 8 SPRINGFIELD SECONDARY SCHOOL SINGAPORE 529593,529593,38799.0137778232,36854.6606742647,1.34957303471476,103.930354460693,Springfield Secondary School
263,SOUTH VIEW PRIMARY SCHOOL,6,CHOA CHU KANG CENTRAL,SOUTH VIEW PRIMARY SCHOOL,6 CHOA CHU KANG CENTRAL SOUTH VIEW PRIMARY SCHOOL SINGAPORE 689762,689762,18313.2418920035,40403.3706761971,1.38166664389749,103.746275846011,South View Primary School
264,WEST SPRING SECONDARY SCHOOL,61,SENJA ROAD,WEST SPRING SECONDARY SCHOOL,61 SENJA ROAD WEST SPRING SECONDARY SCHOOL SINGAPORE 677737,677737,19854.9273258867,41084.0393943992,1.38782283303782,103.760128840155,West Spring Secondary School
265,AMP-MERCU STUDENT CARE CENTRE @ FUHUA PRIMARY SCHOOL,65,JURONG EAST STREET 13,AMP-MERCU STUDENT CARE CENTRE @ FUHUA PRIMARY SCHOOL,65 JURONG EAST STREET 13 AMP-MERCU STUDENT CARE CENTRE @ FUHUA PRIMARY SCHOOL SINGAPORE 609647,609647,17179.4264072292,35419.8652930856,1.33659726465816,103.736089481883,Fuhua Primary School
266,FUHUA PRIMARY SCHOOL,65,JURONG EAST STREET 13,FUHUA PRIMARY SCHOOL,65 JURONG EAST STREET 13 FUHUA PRIMARY SCHOOL SINGAPORE 609647,609647,17181.0134181511,35409.5467255618,1.33650394789627,103.736103745748,Fuhua Primary School
267,SI LING PRIMARY SCHOOL,61,WOODLANDS AVENUE 1,SI LING PRIMARY SCHOOL,61 WOODLANDS AVENUE 1 SI LING PRIMARY SCHOOL SINGAPORE 739067,739067,22738.0565941427,46014.1202728488,1.43240935732525,103.786035065192,Si Ling Primary School
268,AHMAD IBRAHIM PRIMARY SCHOOL,10,YISHUN STREET 11,AHMAD IBRAHIM PRIMARY SCHOOL,10 YISHUN STREET 11 AHMAD IBRAHIM PRIMARY SCHOOL SINGAPORE 768643,768643,27958.1371433474,46096.2627680488,1.43315271543517,103.832942401086,Ahmad Ibrahim Primary School
269,MARSILING PRIMARY SCHOOL,31,WOODLANDS CENTRE ROAD,MARSILING PRIMARY SCHOOL,31 WOODLANDS CENTRE ROAD MARSILING PRIMARY SCHOOL SINGAPORE 738927,738927,21359.011448958,46172.2397052329,1.43383904037059,103.773643013846,Marsiling Primary School
270,TEMASEK PRIMARY SCHOOL,501,BEDOK SOUTH AVENUE 3,TEMASEK PRIMARY SCHOOL,501 BEDOK SOUTH AVENUE 3 TEMASEK PRIMARY SCHOOL SINGAPORE 469300,469300,40494.7969370941,33331.1191061512,1.31770677551333,103.945590669163,Temasek Primary School
271,BUKIT MERAH SECONDARY SCHOOL,10,LENGKOK BAHRU,BUKIT MERAH SECONDARY SCHOOL,10 LENGKOK BAHRU BUKIT MERAH SECONDARY SCHOOL SINGAPORE 159050,159050,25787.5608570725,29790.9091712814,1.28569283064288,103.813438929393,Bukit Merah Secondary School
272,SINGAPORE SPORTS SCHOOL,1,CHAMPIONS WAY,SINGAPORE SPORTS SCHOOL,1 CHAMPIONS WAY SINGAPORE SPORTS SCHOOL SINGAPORE 737913,737913,23117.4954931987,45350.8892124798,1.42641140556342,103.789444793951,Singapore Sports School
273,SINGAPORE SPORTS SCHOOL HOSTEL,3,CHAMPIONS WAY,SINGAPORE SPORTS SCHOOL HOSTEL,3 CHAMPIONS WAY SINGAPORE SPORTS SCHOOL HOSTEL SINGAPORE 737912,737912,22910.2133790664,45425.4911659677,1.42708604194033,103.78758216096,Singapore Sports School
274,SINGAPORE SPORTS SCHOOL HOSTELS,3,CHAMPIONS WAY,SINGAPORE SPORTS SCHOOL HOSTELS,3 CHAMPIONS WAY SINGAPORE SPORTS SCHOOL HOSTELS SINGAPORE 737912,737912,22907.5492819436,45417.83466761,1.4270167988804,103.787558222969,Singapore Sports School
275,CASUARINA PRIMARY SCHOOL,30,PASIR RIS STREET 41,CASUARINA PRIMARY SCHOOL,30 PASIR RIS STREET 41 CASUARINA PRIMARY SCHOOL SINGAPORE 518935,518935,41766.4977676729,39385.5958609674,1.37246063927999,103.957020286115,Casuarina Primary School
276,AFTERSCHOOL @ BUKIT TIMAH PRIMARY SCHOOL,111,LORONG KISMIS,AFTERSCHOOL @ BUKIT TIMAH PRIMARY SCHOOL,111 LORONG KISMIS AFTERSCHOOL @ BUKIT TIMAH PRIMARY SCHOOL SINGAPORE 598112,598112,20603.3479896449,35547.1996132508,1.3377498622588,103.766855344779,Bukit Timah Primary School
277,BUKIT TIMAH PRIMARY SCHOOL,111,LORONG KISMIS,BUKIT TIMAH PRIMARY SCHOOL,111 LORONG KISMIS BUKIT TIMAH PRIMARY SCHOOL SINGAPORE 598112,598112,20600.383664391,35497.4072666373,1.3372995575169,103.766828720721,Bukit Timah Primary School
278,BEDOK SOUTH SECONDARY SCHOOL,1,JALAN LANGGAR BEDOK,BEDOK SOUTH SECONDARY SCHOOL,1 JALAN LANGGAR BEDOK BEDOK SOUTH SECONDARY SCHOOL SINGAPORE 468585,468585,41095.5563319344,34152.6950651146,1.32513655159184,103.950989139261,Bedok South Secondary School
279,RAFFLES GIRLS' PRIMARY SCHOOL,21,HILLCREST ROAD,RAFFLES GIRLS' PRIMARY SCHOOL,21 HILLCREST ROAD RAFFLES GIRLS' PRIMARY SCHOOL SINGAPORE 289072,289072,25009.0146507286,34624.3017604016,1.3294042600012,103.806442915912,Raffles Girls' Primary School
280,KHENG CHENG SCHOOL,15,LORONG 3 TOA PAYOH,KHENG CHENG SCHOOL,15 LORONG 3 TOA PAYOH KHENG CHENG SCHOOL SINGAPORE 319580,319580,29539.1234353296,35501.5835219584,1.3373381935639,103.847148501824,Kheng Cheng School
281,SHG STUDENT CARE (KHENG CHENG SCHOOL),15,LORONG 3 TOA PAYOH,SHG STUDENT CARE (KHENG CHENG SCHOOL),15 LORONG 3 TOA PAYOH SHG STUDENT CARE (KHENG CHENG SCHOOL) SINGAPORE 319580,319580,29538.3022649307,35496.0536824055,1.33728818369962,103.847141122849,Kheng Cheng School
282,JUYING SECONDARY SCHOOL,33,JURONG WEST STREET 91,JUYING SECONDARY SCHOOL,33 JURONG WEST STREET 91 JUYING SECONDARY SCHOOL SINGAPORE 649038,649038,11750.8178531462,35655.1627567839,1.3387227734133,103.687310264575,Juying Secondary School
283,CORPORATION PRIMARY SCHOOL,31,JURONG WEST STREET 24,CORPORATION PRIMARY SCHOOL,31 JURONG WEST STREET 24 CORPORATION PRIMARY SCHOOL SINGAPORE 648347,648347,14008.2263862854,37012.3505131546,1.35099779872539,103.707593724342,Corporation Primary School
284,PAYA LEBAR METHODIST GIRLS' SCHOOL (PRIMARY),298,LORONG AH SOO,PAYA LEBAR METHODIST GIRLS' SCHOOL (PRIMARY),298 LORONG AH SOO PAYA LEBAR METHODIST GIRLS' SCHOOL (PRIMARY) SINGAPORE 536741,536741,33748.3760953182,36843.4187818952,1.34947276268396,103.884971343143,Methodist Girls' School (Primary)
285,NGEE ANN SECONDARY SCHOOL,1,TAMPINES STREET 32,NGEE ANN SECONDARY SCHOOL,1 TAMPINES STREET 32 NGEE ANN SECONDARY SCHOOL SINGAPORE 529283,529283,41736.2154369308,37396.8577860836,1.35447525755806,103.956747262496,Ngee Ann Secondary School
286,MORNING STAR COMMUNITY SERVICES (ST JOSEPH'S INSTITUTION JUNIOR),3,ESSEX ROAD,MORNING STAR COMMUNITY SERVICES (ST JOSEPH'S INSTITUTION JUNIOR),3 ESSEX ROAD MORNING STAR COMMUNITY SERVICES (ST JOSEPH'S INSTITUTION JUNIOR) SINGAPORE 309331,309331,29370.5121512143,33342.7815418858,1.31781476118551,103.845633334522,St. Joseph's Institution Junior
287,SAINT JOSEPH'S INSTITUTION JUNIOR,3,ESSEX ROAD,SAINT JOSEPH'S INSTITUTION JUNIOR,3 ESSEX ROAD SAINT JOSEPH'S INSTITUTION JUNIOR SINGAPORE 309331,309331,29368.130666255,33333.2553599048,1.31772860986913,103.845611935235,St. Joseph's Institution Junior
288,SAINT GABRIEL'S SECONDARY SCHOOL,24,SERANGOON AVENUE 1,SAINT GABRIEL'S SECONDARY SCHOOL,24 SERANGOON AVENUE 1 SAINT GABRIEL'S SECONDARY SCHOOL SINGAPORE 556140,556140,32760.4506575912,36513.3583147768,1.34648798732177,103.876094163287,St. Gabriel's Secondary School
289,LAKESIDE PRIMARY SCHOOL,161,CORPORATION WALK,LAKESIDE PRIMARY SCHOOL,161 CORPORATION WALK LAKESIDE PRIMARY SCHOOL SINGAPORE 618310,618310,15176.2291954523,35597.6143301465,1.33820397704287,103.718089546664,Lakeside Primary School
290,WHEE!CANOPUS STUDENT CARE @ LAKESIDE PRIMARY SCHOOL,161,CORPORATION WALK,WHEE!CANOPUS STUDENT CARE @ LAKESIDE PRIMARY SCHOOL,161 CORPORATION WALK WHEE!CANOPUS STUDENT CARE @ LAKESIDE PRIMARY SCHOOL SINGAPORE 618310,618310,15177.0483984314,35616.6021022275,1.33837569571569,103.718096899655,Lakeside Primary School
291,AI TONG SCHOOL,100,BRIGHT HILL DRIVE,AI TONG SCHOOL,100 BRIGHT HILL DRIVE AI TONG SCHOOL SINGAPORE 579646,579646,27966.8088298785,38071.9191181567,1.3605834338904,103.833020333986,Ai Tong School
292,BIG HEART STUDENT CARE (TAMPINES NORTH PRIMARY SCHOOL),30,TAMPINES AVENUE 9,BIG HEART STUDENT CARE (TAMPINES NORTH PRIMARY SCHOOL),30 TAMPINES AVENUE 9 BIG HEART STUDENT CARE (TAMPINES NORTH PRIMARY SCHOOL) SINGAPORE 529565,529565,40848.2810703805,38061.6583322138,1.36048786025607,103.948768900518,Tampines North Primary School
293,TAMPINES NORTH PRIMARY SCHOOL,30,TAMPINES AVENUE 9,TAMPINES NORTH PRIMARY SCHOOL,30 TAMPINES AVENUE 9 TAMPINES NORTH PRIMARY SCHOOL SINGAPORE 529565,529565,40843.482626386,38060.3925251346,1.36047641484682,103.948725782833,Tampines North Primary School
294,EDGEFIELD PRIMARY SCHOOL,41,EDGEFIELD PLAINS,EDGEFIELD PRIMARY SCHOOL,41 EDGEFIELD PLAINS EDGEFIELD PRIMARY SCHOOL SINGAPORE 828869,828869,36294.0746121518,42440.6405269764,1.40009139510996,103.907847599114,Edgefield Primary School
295,WHEE!CANOPUS STUDENT CARE @ EDGEFIELD PRIMARY SCHOOL,41,EDGEFIELD PLAINS,WHEE!CANOPUS STUDENT CARE @ EDGEFIELD PRIMARY SCHOOL,41 EDGEFIELD PLAINS WHEE!CANOPUS STUDENT CARE @ EDGEFIELD PRIMARY SCHOOL SINGAPORE 828869,828869,36247.6589920688,42463.4656134974,1.40029783011552,103.907430523653,Edgefield Primary School
296,JURONG SECONDARY SCHOOL,31,YUAN CHING ROAD,JURONG SECONDARY SCHOOL,31 YUAN CHING ROAD JURONG SECONDARY SCHOOL SINGAPORE 618652,618652,15828.7257759329,34692.6761670429,1.33002032220942,103.723952961648,Jurong Secondary School
297,JURONG WEST SECONDARY SCHOOL,61,JURONG WEST STREET 65,JURONG WEST SECONDARY SCHOOL,61 JURONG WEST STREET 65 JURONG WEST SECONDARY SCHOOL SINGAPORE 648348,648348,13396.6197330486,35271.7690127064,1.33525634688323,103.702098904443,Jurong Secondary School
298,AMP-MERCU STUDENT CARE CENTRE @ TAMPINES PRIMARY SCHOOL,250,TAMPINES STREET 12,AMP-MERCU STUDENT CARE CENTRE @ TAMPINES PRIMARY SCHOOL,250 TAMPINES STREET 12 AMP-MERCU STUDENT CARE CENTRE @ TAMPINES PRIMARY SCHOOL SINGAPORE 529426,529426,40270.0982013792,36955.7182075791,1.3504863946694,103.943573098509,Tampines Primary School
299,TAMPINES PRIMARY SCHOOL,250,TAMPINES STREET 12,TAMPINES PRIMARY SCHOOL,250 TAMPINES STREET 12 TAMPINES PRIMARY SCHOOL SINGAPORE 529426,529426,40318.132583499,36877.4678724073,1.34977870805929,103.944004684986,Tampines Primary School
300,BIG HEART STUDENT CARE (TAMPINES NORTH PRIMARY SCHOOL),30,TAMPINES AVENUE 9,BIG HEART STUDENT CARE (TAMPINES NORTH PRIMARY SCHOOL),30 TAMPINES AVENUE 9 BIG HEART STUDENT CARE (TAMPINES NORTH PRIMARY SCHOOL) SINGAPORE 529565,529565,40848.2810703805,38061.6583322138,1.36048786025607,103.948768900518,Tampines Primary School
301,TAMPINES NORTH PRIMARY SCHOOL,30,TAMPINES AVENUE 9,TAMPINES NORTH PRIMARY SCHOOL,30 TAMPINES AVENUE 9 TAMPINES NORTH PRIMARY SCHOOL SINGAPORE 529565,529565,40843.482626386,38060.3925251346,1.36047641484682,103.948725782833,Tampines Primary School
302,KUO CHUAN PRESBYTERIAN PRIMARY SCHOOL,8,BISHAN STREET 13,KUO CHUAN PRESBYTERIAN PRIMARY SCHOOL,8 BISHAN STREET 13 KUO CHUAN PRESBYTERIAN PRIMARY SCHOOL SINGAPORE 579793,579793,30414.9291181238,36835.1167885177,1.34939813669536,103.855018233311,Kuo Chuan Presbyterian Primary School
303,KUO CHUAN PRESBYTERIAN PRIMARY SCHOOL (U/C),8,BISHAN STREET 13,KUO CHUAN PRESBYTERIAN PRIMARY SCHOOL (U/C),8 BISHAN STREET 13 KUO CHUAN PRESBYTERIAN PRIMARY SCHOOL (U/C) SINGAPORE 579793,579793,30335.0289356941,36825.3860857729,1.34931014201944,103.854300279284,Kuo Chuan Presbyterian Primary School
304,KUO CHUAN PRESBYTERIAN PRIMARY SCHOOL,8B,BISHAN STREET 13,KUO CHUAN PRESBYTERIAN PRIMARY SCHOOL,8B BISHAN STREET 13 KUO CHUAN PRESBYTERIAN PRIMARY SCHOOL SINGAPORE 579802,579802,30360.5145779848,36877.5882179104,1.34978223750981,103.85452928785,Kuo Chuan Presbyterian Primary School
305,NGEE ANN PRIMARY SCHOOL,344,MARINE TERRACE,NGEE ANN PRIMARY SCHOOL,344 MARINE TERRACE NGEE ANN PRIMARY SCHOOL SINGAPORE 449149,449149,37364.5041869488,31984.0027186833,1.30552505910497,103.917463017497,Ngee Ann Primary School
306,GEYLANG METHODIST SCHOOL (PRIMARY),4,GEYLANG EAST CENTRAL,GEYLANG METHODIST SCHOOL (PRIMARY),4 GEYLANG EAST CENTRAL GEYLANG METHODIST SCHOOL (PRIMARY) SINGAPORE 389706,389706,33623.1818729434,33318.1223668903,1.31759126757284,103.883845744916,Geylang Methodist School (Primary)
307,BOON LAY SECONDARY SCHOOL,11,JURONG WEST STREET 65,BOON LAY SECONDARY SCHOOL,11 JURONG WEST STREET 65 BOON LAY SECONDARY SCHOOL SINGAPORE 648354,648354,13373.5768683841,36097.304205548,1.34272216334333,103.701891453912,Boon Lay Secondary School
308,SAINT PATRICK'S SCHOOL,490,EAST COAST ROAD,SAINT PATRICK'S SCHOOL,490 EAST COAST ROAD SAINT PATRICK'S SCHOOL SINGAPORE 429058,429058,37383.9909570096,32244.7789235692,1.30788341871801,103.917638193713,St. Patrick's School
309,SAINT PATRICK'S SCHOOL,498,EAST COAST ROAD,SAINT PATRICK'S SCHOOL,498 EAST COAST ROAD SAINT PATRICK'S SCHOOL SINGAPORE 429102,429102,37287.1967600044,32222.7172864024,1.30768393050916,103.916768445926,St. Patrick's School
310,FUHUA SECONDARY SCHOOL,5,JURONG WEST STREET 41,FUHUA SECONDARY SCHOOL,5 JURONG WEST STREET 41 FUHUA SECONDARY SCHOOL SINGAPORE 649410,649410,16114.5930194063,36571.750703603,1.34701408913756,103.72652089832,Fuhua Secondary School
311,COMMONWEALTH SECONDARY SCHOOL,698,WEST COAST ROAD,COMMONWEALTH SECONDARY SCHOOL,698 WEST COAST ROAD COMMONWEALTH SECONDARY SCHOOL SINGAPORE 608784,608784,18241.9409345519,33496.5605151355,1.31920395934801,103.745637393049,Commonwealth Secondary School
312,YISHUN SECONDARY SCHOOL,4,YISHUN STREET 71,YISHUN SECONDARY SCHOOL,4 YISHUN STREET 71 YISHUN SECONDARY SCHOOL SINGAPORE 768516,768516,27493.1783263972,45541.2352395374,1.42813324276086,103.828764316679,Yishun Secondary School
313,YISHUN TOWN SECONDARY SCHOOL,6,YISHUN STREET 21,YISHUN TOWN SECONDARY SCHOOL,6 YISHUN STREET 21 YISHUN TOWN SECONDARY SCHOOL SINGAPORE 768610,768610,28531.4577029087,46004.3591205124,1.43232156717386,103.838094226361,Yishun Secondary School
314,SAINT ANTHONY'S CANOSSIAN PRIMARY SCHOOL,1602,BEDOK NORTH AVENUE 4,SAINT ANTHONY'S CANOSSIAN PRIMARY SCHOOL,1602 BEDOK NORTH AVENUE 4 SAINT ANTHONY'S CANOSSIAN PRIMARY SCHOOL SINGAPORE 469701,469701,40009.9558383394,35212.930261923,1.3347253730189,103.941234868202,St. Anthony's Canossian Primary School
315,NORTH VISTA PRIMARY SCHOOL,20,COMPASSVALE LINK,NORTH VISTA PRIMARY SCHOOL,20 COMPASSVALE LINK NORTH VISTA PRIMARY SCHOOL SINGAPORE 544974,544974,34971.4042828046,40531.0861005448,1.38282243016299,103.895961877928,North Vista Primary School
316,ZHONGHUA SECONDARY SCHOOL,13,SERANGOON AVENUE 3,ZHONGHUA SECONDARY SCHOOL,13 SERANGOON AVENUE 3 ZHONGHUA SECONDARY SCHOOL SINGAPORE 556123,556123,32018.8531237943,36725.5640310161,1.34840720846208,103.869430481414,Zhonghua Secondary School
317,MARYMOUNT CONVENT SCHOOL,20,MARYMOUNT ROAD,MARYMOUNT CONVENT SCHOOL,20 MARYMOUNT ROAD MARYMOUNT CONVENT SCHOOL SINGAPORE 297754,297754,28745.9144793656,35836.4646800403,1.34036676987375,103.840021064426,Marymount Convent School
318,YEW TEE PRIMARY SCHOOL,10,CHOA CHU KANG STREET 64,YEW TEE PRIMARY SCHOOL,10 CHOA CHU KANG STREET 64 YEW TEE PRIMARY SCHOOL SINGAPORE 689100,689100,18837.4775282657,42072.9649468437,1.39676600905037,103.750985967346,Yew Tee Primary School
319,PUNGGOL VIEW PRIMARY SCHOOL,9,PUNGGOL PLACE,PUNGGOL VIEW PRIMARY SCHOOL,9 PUNGGOL PLACE PUNGGOL VIEW PRIMARY SCHOOL SINGAPORE 828845,828845,35994.5599585725,42999.5250743832,1.40514582647962,103.905156371376,Punggol View Primary School
320,YUMIN PRIMARY SCHOOL,3,TAMPINES STREET 21,YUMIN PRIMARY SCHOOL,3 TAMPINES STREET 21 YUMIN PRIMARY SCHOOL SINGAPORE 529393,529393,41036.7447315324,37044.8092632648,1.35129177656981,103.950461927088,Yumin Primary School
321,SHG STUDENT CARE (YUMIN PRIMARY SCHOOL),3,TAMPINES STREET 21,SHG STUDENT CARE (YUMIN PRIMARY SCHOOL),3 TAMPINES STREET 21 SHG STUDENT CARE (YUMIN PRIMARY SCHOOL) SINGAPORE 529393,529393,41046.6676057065,37047.4549574535,1.35131569890862,103.950551091373,Yumin Primary School
322,UNITY PRIMARY SCHOOL,21,CHOA CHU KANG CRESCENT,UNITY PRIMARY SCHOOL,21 CHOA CHU KANG CRESCENT UNITY PRIMARY SCHOOL SINGAPORE 688268,688268,18374.1775784306,42746.2521210518,1.40285481877246,103.746822625758,Unity Primary School
323,GAN ENG SENG SCHOOL,1,HENDERSON ROAD,GAN ENG SENG SCHOOL,1 HENDERSON ROAD GAN ENG SENG SCHOOL SINGAPORE 159561,159561,26933.2813452026,30164.4591011573,1.28907114485773,103.823733673089,Gan Eng Seng School
324,GAN ENG SENG PRIMARY SCHOOL,100,REDHILL CLOSE,GAN ENG SENG PRIMARY SCHOOL,100 REDHILL CLOSE GAN ENG SENG PRIMARY SCHOOL SINGAPORE 158901,158901,26022.2170935348,29780.10807156,1.28559516494962,103.815547410064,Gan Eng Seng School
325,H.S. OF GAN ENG SENG SCHOOL (HISTORIC SITE),,NIL,H.S. OF GAN ENG SENG SCHOOL (HISTORIC SITE),H.S. OF GAN ENG SENG SCHOOL (HISTORIC SITE),NIL,29542.1070715562,28958.9942744393,1.27816932451635,103.847174987401,Gan Eng Seng School
326,POWERLIFE STUDENT SERVICES @ QIHUA PRIMARY SCHOOL,5,WOODLANDS STREET 81,POWERLIFE STUDENT SERVICES @ QIHUA PRIMARY SCHOOL,5 WOODLANDS STREET 81 POWERLIFE STUDENT SERVICES @ QIHUA PRIMARY SCHOOL SINGAPORE 738525,738525,22994.5556907868,47078.5773993656,1.44203596557592,103.788339762066,Qihua Primary School
327,QIHUA PRIMARY SCHOOL,5,WOODLANDS STREET 81,QIHUA PRIMARY SCHOOL,5 WOODLANDS STREET 81 QIHUA PRIMARY SCHOOL SINGAPORE 738525,738525,22994.5551156951,47078.5774599016,1.4420359661233,103.788339756898,Qihua Primary School
328,OUTRAM SECONDARY SCHOOL,3,YORK HILL,OUTRAM SECONDARY SCHOOL,3 YORK HILL OUTRAM SECONDARY SCHOOL SINGAPORE 168622,168622,28423.8747252515,29881.6544933487,1.28651357464735,103.837127264403,Outram Secondary School
329,PEI HWA SECONDARY SCHOOL,21,FERNVALE LINK,PEI HWA SECONDARY SCHOOL,21 FERNVALE LINK PEI HWA SECONDARY SCHOOL SINGAPORE 797702,797702,33023.8451944096,41366.172537256,1.39037504993234,103.878461745339,Pei Hwa Secondary School
330,FIRST TOA PAYOH PRIMARY SCHOOL,7,LORONG 8 TOA PAYOH,FIRST TOA PAYOH PRIMARY SCHOOL,7 LORONG 8 TOA PAYOH FIRST TOA PAYOH PRIMARY SCHOOL SINGAPORE 319252,319252,30471.8817195026,35831.634454662,1.34032299499938,103.855529906182,First Toa Payoh Primary School
331,GUANGYANG SECONDARY SCHOOL,8,BISHAN STREET 12,GUANGYANG SECONDARY SCHOOL,8 BISHAN STREET 12 GUANGYANG SECONDARY SCHOOL SINGAPORE 579807,579807,29879.7115914728,36283.3906797953,1.34440856042912,103.850208933626,Guangyang Secondary School
332,SAINT MARGARET'S SCHOOL (SECONDARY),111,FARRER ROAD,SAINT MARGARET'S SCHOOL (SECONDARY),111 FARRER ROAD SAINT MARGARET'S SCHOOL (SECONDARY) SINGAPORE 259240,259240,25399.434259722,33591.9655932952,1.32006821363359,103.80995114006,St. Margaret's Secondary School
333,CANTONMENT PRIMARY SCHOOL,1,CANTONMENT CLOSE,CANTONMENT PRIMARY SCHOOL,1 CANTONMENT CLOSE CANTONMENT PRIMARY SCHOOL SINGAPORE 088256,088256,28739.4305021614,28660.7930697445,1.27547252623201,103.839962631748,Cantonment Primary School
334,EVERGREEN SECONDARY SCHOOL,11,WOODLANDS STREET 83,EVERGREEN SECONDARY SCHOOL,11 WOODLANDS STREET 83 EVERGREEN SECONDARY SCHOOL SINGAPORE 738489,738489,23639.7815383626,47018.3404796105,1.44149131273737,103.794137756171,Evergreen Secondary School
335,PAYA LEBAR METHODIST GIRLS' SCHOOL (SECONDARY),296,LORONG AH SOO,PAYA LEBAR METHODIST GIRLS' SCHOOL (SECONDARY),296 LORONG AH SOO PAYA LEBAR METHODIST GIRLS' SCHOOL (SECONDARY) SINGAPORE 536742,536742,33764.9220583495,37008.7061571106,1.35096755912522,103.885120050588,Paya Lebar Methodist Girls' School (Secondary)
336,SEMBAWANG PRIMARY SCHOOL,10,SEMBAWANG DRIVE,SEMBAWANG PRIMARY SCHOOL,10 SEMBAWANG DRIVE SEMBAWANG PRIMARY SCHOOL SINGAPORE 757715,757715,26633.8508971538,47414.4307650849,1.4450737155262,103.821042374036,Sembawang Primary School
337,BEATTY SECONDARY SCHOOL,1,TOA PAYOH NORTH,BEATTY SECONDARY SCHOOL,1 TOA PAYOH NORTH BEATTY SECONDARY SCHOOL SINGAPORE 318990,318990,30110.2946048304,35993.876840448,1.341790284928,103.852280842345,Beatty Secondary School
338,FUCHUN PRIMARY SCHOOL,23,WOODLANDS AVENUE 1,FUCHUN PRIMARY SCHOOL,23 WOODLANDS AVENUE 1 FUCHUN PRIMARY SCHOOL SINGAPORE 739063,739063,21865.3411816815,45800.7908879817,1.43047990810126,103.778192944298,Fuchun Primary School
339,SHG STUDENT CARE (FUCHUN PRIMARY SCHOOL),23,WOODLANDS AVENUE 1,SHG STUDENT CARE (FUCHUN PRIMARY SCHOOL),23 WOODLANDS AVENUE 1 SHG STUDENT CARE (FUCHUN PRIMARY SCHOOL) SINGAPORE 739063,739063,21863.36610494,45818.4663008247,1.43063975763573,103.778175192579,Fuchun Primary School
340,GEYLANG METHODIST SCHOOL (SECONDARY),2,GEYLANG EAST CENTRAL,GEYLANG METHODIST SCHOOL (SECONDARY),2 GEYLANG EAST CENTRAL GEYLANG METHODIST SCHOOL (SECONDARY) SINGAPORE 389705,389705,33491.3455231488,33324.5040080417,1.31764900474601,103.882661129303,Geylang Methodist School (Secondary)
341,LEARNING STUDIO EDUCARE BY ZENITANT (MONTFORT JUNIOR SCHOOL),52,HOUGANG AVENUE 8,LEARNING STUDIO EDUCARE BY ZENITANT (MONTFORT JUNIOR SCHOOL),52 HOUGANG AVENUE 8 LEARNING STUDIO EDUCARE BY ZENITANT (MONTFORT JUNIOR SCHOOL) SINGAPORE 538786,538786,34279.1743147392,39514.0026060622,1.37362445234082,103.889741457901,Montfort Junior School
342,MONTFORT JUNIOR SCHOOL,52,HOUGANG AVENUE 8,MONTFORT JUNIOR SCHOOL,52 HOUGANG AVENUE 8 MONTFORT JUNIOR SCHOOL SINGAPORE 538786,538786,34230.9110763939,39536.1151842475,1.37382444075979,103.889307782925,Montfort Junior School
343,GONGSHANG PRIMARY SCHOOL,1,TAMPINES STREET 42,GONGSHANG PRIMARY SCHOOL,1 TAMPINES STREET 42 GONGSHANG PRIMARY SCHOOL SINGAPORE 529176,529176,40886.8508355999,37702.2195482217,1.35723721393297,103.949115320172,Gongshang Primary School
344,COMMIT LEARNING SCHOOLHOUSE @ GONGSHANG PRIMARY SCHOOL,1,TAMPINES STREET 42,COMMIT LEARNING SCHOOLHOUSE @ GONGSHANG PRIMARY SCHOOL,1 TAMPINES STREET 42 COMMIT LEARNING SCHOOLHOUSE @ GONGSHANG PRIMARY SCHOOL SINGAPORE 529176,529176,40890.1319455709,37688.8239677399,1.35711606790292,103.949144797277,Gongshang Primary School
345,FARRER PARK PRIMARY SCHOOL,2,FARRER PARK ROAD,FARRER PARK PRIMARY SCHOOL,2 FARRER PARK ROAD FARRER PARK PRIMARY SCHOOL SINGAPORE 217567,217567,29941.7768185176,32740.5849021059,1.31236867681371,103.850766402965,Farrer Park Primary School
346,TOWNSVILLE PRIMARY SCHOOL,3,ANG MO KIO AVENUE 10,TOWNSVILLE PRIMARY SCHOOL,3 ANG MO KIO AVENUE 10 TOWNSVILLE PRIMARY SCHOOL SINGAPORE 569730,569730,30282.242298523,38011.0245356523,1.36003263746623,103.853826048327,Townsville Primary School
347,VALOUR PRIMARY SCHOOL,49,PUNGGOL CENTRAL,VALOUR PRIMARY SCHOOL,49 PUNGGOL CENTRAL VALOUR PRIMARY SCHOOL SINGAPORE 828728,828728,35318.1306347065,43186.3631934691,1.40683570215319,103.899078139493,Valour Primary School
348,CHIJ OUR LADY OF GOOD COUNSEL,2C,BURGHLEY DRIVE,CHIJ OUR LADY OF GOOD COUNSEL,2C BURGHLEY DRIVE CHIJ OUR LADY OF GOOD COUNSEL SINGAPORE 558979,558979,31415.5340866428,37723.1973494291,1.35742952269615,103.864009397373,CHIJ Our Lady of Good Counsel
349,YMCA STUDENT CARE CENTRE @ CHIJ OUR LADY OF GOOD COUNSEL,2C,BURGHLEY DRIVE,YMCA STUDENT CARE CENTRE @ CHIJ OUR LADY OF GOOD COUNSEL,2C BURGHLEY DRIVE YMCA STUDENT CARE CENTRE @ CHIJ OUR LADY OF GOOD COUNSEL SINGAPORE 558979,558979,31431.409129547,37785.7194716875,1.35799494859112,103.864152052213,CHIJ Our Lady of Good Counsel
350,KUO CHUAN PRESBYTERIAN SECONDARY SCHOOL,10,BISHAN STREET 13,KUO CHUAN PRESBYTERIAN SECONDARY SCHOOL,10 BISHAN STREET 13 KUO CHUAN PRESBYTERIAN SECONDARY SCHOOL SINGAPORE 579795,579795,30411.0903508216,36920.6091322787,1.35017129930314,103.854983746416,Kuo Chuan Presbyterian Secondary School
351,MANJUSRI SECONDARY SCHOOL,20,UBI AVENUE 1,MANJUSRI SECONDARY SCHOOL,20 UBI AVENUE 1 MANJUSRI SECONDARY SCHOOL SINGAPORE 408940,408940,35612.3792342106,34410.6462380104,1.32747123084846,103.901719963831,Manjusri Secondary School
352,SHG STUDENT CARE (BENDEMEER PRIMARY SCHOOL),91,BENDEMEER ROAD,SHG STUDENT CARE (BENDEMEER PRIMARY SCHOOL),91 BENDEMEER ROAD SHG STUDENT CARE (BENDEMEER PRIMARY SCHOOL) SINGAPORE 339948,339948,31564.9272895884,33828.6365878265,1.32220848530291,103.865351336085,Bendemeer Primary School
353,BENDEMEER PRIMARY SCHOOL,91,BENDEMEER ROAD,BENDEMEER PRIMARY SCHOOL,91 BENDEMEER ROAD BENDEMEER PRIMARY SCHOOL SINGAPORE 339948,339948,31570.8074810533,33784.8514976725,1.32181250780475,103.865404167629,Bendemeer Primary School
354,XINMIN SECONDARY SCHOOL,11,HOUGANG AVENUE 8,XINMIN SECONDARY SCHOOL,11 HOUGANG AVENUE 8 XINMIN SECONDARY SCHOOL SINGAPORE 538789,538789,33534.6789847175,39396.1568145063,1.37255884700002,103.88305161385,Xinmin Secondary School
355,LEARNING STUDIO BY ZENITANT (ZHONGHUA PRIMARY SCHOOL),12,SERANGOON AVENUE 4,LEARNING STUDIO BY ZENITANT (ZHONGHUA PRIMARY SCHOOL),12 SERANGOON AVENUE 4 LEARNING STUDIO BY ZENITANT (ZHONGHUA PRIMARY SCHOOL) SINGAPORE 556095,556095,32050.2209249679,38036.2660969216,1.36026072476019,103.869712517383,Zhonghua Primary School
356,ZHONGHUA PRIMARY SCHOOL,12,SERANGOON AVENUE 4,ZHONGHUA PRIMARY SCHOOL,12 SERANGOON AVENUE 4 ZHONGHUA PRIMARY SCHOOL SINGAPORE 556095,556095,32055.7766133798,38029.9161160812,1.36020329705047,103.869762438084,Zhonghua Primary School
357,SHUQUN PRIMARY SCHOOL,8,JURONG WEST STREET 51,SHUQUN PRIMARY SCHOOL,8 JURONG WEST STREET 51 SHUQUN PRIMARY SCHOOL SINGAPORE 649332,649332,15558.4638573611,36642.4359194618,1.34765311431632,103.721523713379,Shuqun Primary School
358,NAN CHIAU HIGH SCHOOL,20,ANCHORVALE LINK,NAN CHIAU HIGH SCHOOL,20 ANCHORVALE LINK NAN CHIAU HIGH SCHOOL SINGAPORE 545079,545079,34308.3992032008,41191.5774543677,1.38879582498399,103.890004423764,Nan Chiau High School
359,HAIG GIRLS' SCHOOL,51,KOON SENG ROAD,HAIG GIRLS' SCHOOL,51 KOON SENG ROAD HAIG GIRLS' SCHOOL SINGAPORE 427072,427072,35744.037941209,32693.6655622385,1.31194344271383,103.902902557195,Haig Girls' School
360,HAIG GIRLS' SCHOOL (U/C),51,KOON SENG ROAD,HAIG GIRLS' SCHOOL (U/C),51 KOON SENG ROAD HAIG GIRLS' SCHOOL (U/C) SINGAPORE 427072,427072,35798.6867555426,32648.9584790319,1.31153911414311,103.903393592097,Haig Girls' School
361,NAN HUA HIGH SCHOOL,41,CLEMENTI AVENUE 1,NAN HUA HIGH SCHOOL,41 CLEMENTI AVENUE 1 NAN HUA HIGH SCHOOL SINGAPORE 129956,129956,20793.1335141817,32268.1425985936,1.30809529518605,103.768561446725,Nan Hua High School
362,ORCHID PARK SECONDARY SCHOOL,10,YISHUN STREET 81,ORCHID PARK SECONDARY SCHOOL,10 YISHUN STREET 81 ORCHID PARK SECONDARY SCHOOL SINGAPORE 768454,768454,28505.3110986585,44124.4476742018,1.41532032779634,103.837859241343,Orchid Park Secondary School
363,UNITY SECONDARY SCHOOL,20,CHOA CHU KANG STREET 62,UNITY SECONDARY SCHOOL,20 CHOA CHU KANG STREET 62 UNITY SECONDARY SCHOOL SINGAPORE 689143,689143,18284.9462911766,42432.2689475045,1.40001524119441,103.74602091483,Unity Secondary School
364,HONG WEN SCHOOL,30,TOWNER ROAD,HONG WEN SCHOOL,30 TOWNER ROAD HONG WEN SCHOOL SINGAPORE 327829,327829,30705.4493981982,33779.0355954058,1.32175999964553,103.857628468881,Hong Wen School
365,BIG HEART STUDENT CARE (CEDAR PRIMARY SCHOOL),15,CEDAR AVENUE,BIG HEART STUDENT CARE (CEDAR PRIMARY SCHOOL),15 CEDAR AVENUE BIG HEART STUDENT CARE (CEDAR PRIMARY SCHOOL) SINGAPORE 349700,349700,32707.7091499828,35316.1469013225,1.33566084356265,103.87562006259,Cedar Primary School
366,CEDAR PRIMARY SCHOOL,15,CEDAR AVENUE,CEDAR PRIMARY SCHOOL,15 CEDAR AVENUE CEDAR PRIMARY SCHOOL SINGAPORE 349700,349700,32707.8191135684,35308.1476785857,1.3355885014312,103.87562104944,Cedar Primary School
367,XINGNAN PRIMARY SCHOOL,5,JURONG WEST STREET 91,XINGNAN PRIMARY SCHOOL,5 JURONG WEST STREET 91 XINGNAN PRIMARY SCHOOL SINGAPORE 649036,649036,11822.0669615418,36078.0729275383,1.34254744877694,103.687950252103,Xingnan Primary School
368,SHG STUDENT CARE (XINGNAN PRIMARY SCHOOL),5,JURONG WEST STREET 91,SHG STUDENT CARE (XINGNAN PRIMARY SCHOOL),5 JURONG WEST STREET 91 SHG STUDENT CARE (XINGNAN PRIMARY SCHOOL) SINGAPORE 649036,649036,11781.8064267524,36095.6510288138,1.34270639669225,103.687588478681,Xingnan Primary School
369,DAMAI PRIMARY SCHOOL,52,BEDOK RESERVOIR CRESCENT,DAMAI PRIMARY SCHOOL,52 BEDOK RESERVOIR CRESCENT DAMAI PRIMARY SCHOOL SINGAPORE 479226,479226,37788.0885467725,35294.1912929006,1.33546106800406,103.921270169613,Damai Primary School
370,SWISS COTTAGE SECONDARY SCHOOL,3,BUKIT BATOK STREET 34,SWISS COTTAGE SECONDARY SCHOOL,3 BUKIT BATOK STREET 34 SWISS COTTAGE SECONDARY SCHOOL SINGAPORE 659322,659322,18771.7135838792,38529.1941047609,1.36471742697475,103.750396136688,Swiss Cottage Secondary School
371,CANBERRA PRIMARY SCHOOL,21,ADMIRALTY DRIVE,CANBERRA PRIMARY SCHOOL,21 ADMIRALTY DRIVE CANBERRA PRIMARY SCHOOL SINGAPORE 757714,757714,26057.0121687725,48097.4040875677,1.45125024371543,103.815858858929,Canberra Primary School
372,COMMIT LEARNING SCHOOLHOUSE @ CATHOLIC HIGH SCHOOL (PRIMARY),9,BISHAN STREET 22,COMMIT LEARNING SCHOOLHOUSE @ CATHOLIC HIGH SCHOOL (PRIMARY),9 BISHAN STREET 22 COMMIT LEARNING SCHOOLHOUSE @ CATHOLIC HIGH SCHOOL (PRIMARY) SINGAPORE 579767,579767,29212.1656484166,37386.9490167908,1.35438878373608,103.844210670766,Catholic High School (Primary)
373,NORTH SPRING PRIMARY SCHOOL,1,RIVERVALE STREET,NORTH SPRING PRIMARY SCHOOL,1 RIVERVALE STREET NORTH SPRING PRIMARY SCHOOL SINGAPORE 545088,545088,35777.2005732814,40999.8398870248,1.38706146494859,103.903202683028,North Spring Primary School
374,YANGZHENG PRIMARY SCHOOL,15,SERANGOON AVENUE 3,YANGZHENG PRIMARY SCHOOL,15 SERANGOON AVENUE 3 YANGZHENG PRIMARY SCHOOL SINGAPORE 556108,556108,31925.931594234,36751.9403087255,1.34864575840923,103.868595527042,Yangzheng Primary School
375,NORTHOAKS PRIMARY SCHOOL,61,SEMBAWANG DRIVE,NORTHOAKS PRIMARY SCHOOL,61 SEMBAWANG DRIVE NORTHOAKS PRIMARY SCHOOL SINGAPORE 757622,757622,25872.0767556792,48689.8195981402,1.45660782030102,103.814196981329,Northoaks Primary School
376,WHEE!CANOPUS STUDENT CARE @ NORTHOAKS PRIMARY SCHOOL,61,SEMBAWANG DRIVE,WHEE!CANOPUS STUDENT CARE @ NORTHOAKS PRIMARY SCHOOL,61 SEMBAWANG DRIVE WHEE!CANOPUS STUDENT CARE @ NORTHOAKS PRIMARY SCHOOL SINGAPORE 757622,757622,25815.4884597529,48691.586582493,1.45662379586093,103.813688476692,Northoaks Primary School
377,CLEMENTI PRIMARY SCHOOL,8,CLEMENTI AVENUE 3,CLEMENTI PRIMARY SCHOOL,8 CLEMENTI AVENUE 3 CLEMENTI PRIMARY SCHOOL SINGAPORE 129903,129903,20190.2983410172,33038.6364921555,1.31506321827875,103.763144493687,Clementi Primary School
378,HUA YI SECONDARY SCHOOL,60,JURONG WEST STREET 42,HUA YI SECONDARY SCHOOL,60 JURONG WEST STREET 42 HUA YI SECONDARY SCHOOL SINGAPORE 649371,649371,15592.8322145641,37161.0913502462,1.35234365488339,103.721832320169,Hua Yi Secondary School
379,PEIRCE SECONDARY SCHOOL,10,SIN MING WALK,PEIRCE SECONDARY SCHOOL,10 SIN MING WALK PEIRCE SECONDARY SCHOOL SINGAPORE 575566,575566,27654.7276661592,38743.7738600355,1.36665944653812,103.83021606804,Peirce Secondary School
380,ACE @ WORK SCHOOLCARE PTE LTD (PEI CHUN PUBLIC SCHOOL),16,LORONG 7 TOA PAYOH,ACE @ WORK SCHOOLCARE PTE LTD (PEI CHUN PUBLIC SCHOOL),16 LORONG 7 TOA PAYOH ACE @ WORK SCHOOLCARE PTE LTD (PEI CHUN PUBLIC SCHOOL) SINGAPORE 319320,319320,30450.8965329072,35439.718033338,1.33677864390672,103.855341310212,Pei Chun Public School
381,PEI CHUN PUBLIC SCHOOL,16,LORONG 7 TOA PAYOH,PEI CHUN PUBLIC SCHOOL,16 LORONG 7 TOA PAYOH PEI CHUN PUBLIC SCHOOL SINGAPORE 319320,319320,30478.0803604238,35505.5040733535,1.33737358725951,103.855585578061,Pei Chun Public School
382,GREENWOOD PRIMARY SCHOOL,11,WOODLANDS DRIVE 62,GREENWOOD PRIMARY SCHOOL,11 WOODLANDS DRIVE 62 GREENWOOD PRIMARY SCHOOL SINGAPORE 737942,737942,24818.0410170276,46842.3174743224,1.43989958331782,103.804725587384,Greenwood Primary School
383,SHG STUDENT CARE (GREENWOOD PRIMARY SCHOOL),11,WOODLANDS DRIVE 62,SHG STUDENT CARE (GREENWOOD PRIMARY SCHOOL),11 WOODLANDS DRIVE 62 SHG STUDENT CARE (GREENWOOD PRIMARY SCHOOL) SINGAPORE 737942,737942,24794.6262799157,46865.6384109538,1.4401104867196,103.804515180606,Greenwood Primary School
384,SAINT HILDA'S SECONDARY SCHOOL,2,TAMPINES STREET 82,SAINT HILDA'S SECONDARY SCHOOL,2 TAMPINES STREET 82 SAINT HILDA'S SECONDARY SCHOOL SINGAPORE 528986,528986,39606.2556369342,36873.0704489276,1.34973922385379,103.937608032148,St. Hilda's Secondary School
385,DAZHONG PRIMARY SCHOOL,35,BUKIT BATOK STREET 31,DAZHONG PRIMARY SCHOOL,35 BUKIT BATOK STREET 31 DAZHONG PRIMARY SCHOOL SINGAPORE 659441,659441,18557.5702323942,37916.8722190689,1.3591797447277,103.74847210784,Dazhong Primary School
386,YUYING SECONDARY SCHOOL,47,HOUGANG AVENUE 1,YUYING SECONDARY SCHOOL,47 HOUGANG AVENUE 1 YUYING SECONDARY SCHOOL SINGAPORE 538884,538884,34329.6638843575,37690.788632296,1.35713595302467,103.890194755287,Yuying Secondary School
387,WHEE!CANOPUS STUDENT CARE @ JUNYUAN PRIMARY SCHOOL,2,TAMPINES STREET 91,WHEE!CANOPUS STUDENT CARE @ JUNYUAN PRIMARY SCHOOL,2 TAMPINES STREET 91 WHEE!CANOPUS STUDENT CARE @ JUNYUAN PRIMARY SCHOOL SINGAPORE 528906,528906,39797.6365868924,36666.4453921858,1.34787050871599,103.939327626661,Junyuan Primary School
388,JUNYUAN PRIMARY SCHOOL,2,TAMPINES STREET 91,JUNYUAN PRIMARY SCHOOL,2 TAMPINES STREET 91 JUNYUAN PRIMARY SCHOOL SINGAPORE 528906,528906,39785.8491141181,36666.4713015798,1.34787074766746,103.939221709073,Junyuan Primary School
389,TEMASEK SECONDARY SCHOOL,600,UPPER EAST COAST ROAD,TEMASEK SECONDARY SCHOOL,600 UPPER EAST COAST ROAD TEMASEK SECONDARY SCHOOL SINGAPORE 465561,465561,40714.4313851139,33133.1948234718,1.31591673150616,103.947564112022,Temasek Secondary School
390,YISHUN PRIMARY SCHOOL,500,YISHUN RING ROAD,YISHUN PRIMARY SCHOOL,500 YISHUN RING ROAD YISHUN PRIMARY SCHOOL SINGAPORE 768679,768679,28085.526611778,46122.0615023617,1.43338602975674,103.834087115915,Yishun Primary School
391,CHONGZHENG PRIMARY SCHOOL,1,TAMPINES STREET 21,CHONGZHENG PRIMARY SCHOOL,1 TAMPINES STREET 21 CHONGZHENG PRIMARY SCHOOL SINGAPORE 529392,529392,41141.094059418,36980.1959562805,1.35070739237744,103.951399541868,Chongzheng Primary School
392,BIG HEART STUDENT CARE (CHONGZHENG PRIMARY SCHOOL),1,TAMPINES STREET 21,BIG HEART STUDENT CARE (CHONGZHENG PRIMARY SCHOOL),1 TAMPINES STREET 21 BIG HEART STUDENT CARE (CHONGZHENG PRIMARY SCHOOL) SINGAPORE 529392,529392,41131.9416870372,36969.5707135443,1.35061130568554,103.951317297552,Chongzheng Primary School
393,SAINT ANDREW'S SECONDARY SCHOOL,15,FRANCIS THOMAS DRIVE,SAINT ANDREW'S SECONDARY SCHOOL,15 FRANCIS THOMAS DRIVE SAINT ANDREW'S SECONDARY SCHOOL SINGAPORE 359342,359342,31664.831310045,34766.8795819897,1.33069360968075,103.866249138562,St. Andrew's Secondary School
394,YU NENG PRIMARY SCHOOL,56,BEDOK NORTH STREET 3,YU NENG PRIMARY SCHOOL,56 BEDOK NORTH STREET 3 YU NENG PRIMARY SCHOOL SINGAPORE 469623,469623,38998.3352306299,35120.4393246993,1.33388930344069,103.932144857355,Yu Neng Primary School
395,SINGAPORE CHINESE GIRLS' SCHOOL (PRIMARY),190,DUNEARN ROAD,SINGAPORE CHINESE GIRLS' SCHOOL (PRIMARY),190 DUNEARN ROAD SINGAPORE CHINESE GIRLS' SCHOOL (PRIMARY) SINGAPORE 309437,309437,27379.6878858209,33673.6731678378,1.32080725235992,103.827744749548,Singapore Chinese Girls' School
396,SINGAPORE CHINESE GIRLS' SCHOOL,190,DUNEARN ROAD,SINGAPORE CHINESE GIRLS' SCHOOL,190 DUNEARN ROAD SINGAPORE CHINESE GIRLS' SCHOOL SINGAPORE 309437,309437,27426.4538880838,33654.5249451734,1.3206340835184,103.828164966953,Singapore Chinese Girls' School
397,H.S. OF SINGAPORE CHINESE GIRLS' SCHOOL (HISTORIC SITE),,NIL,H.S. OF SINGAPORE CHINESE GIRLS' SCHOOL (HISTORIC SITE),H.S. OF SINGAPORE CHINESE GIRLS' SCHOOL (HISTORIC SITE),NIL,28638.5122923749,31638.2006904669,1.30239915719716,103.839055904985,Singapore Chinese Girls' School
398,QUEENSTOWN PRIMARY SCHOOL,310,MARGARET DRIVE,QUEENSTOWN PRIMARY SCHOOL,310 MARGARET DRIVE QUEENSTOWN PRIMARY SCHOOL SINGAPORE 149303,149303,25132.029336133,30885.6966638304,1.29559365009015,103.807548617332,Queenstown Primary School
399,DAMAI SECONDARY SCHOOL,4800,BEDOK RESERVOIR ROAD,DAMAI SECONDARY SCHOOL,4800 BEDOK RESERVOIR ROAD DAMAI SECONDARY SCHOOL SINGAPORE 479229,479229,38435.9529452929,35456.4196343422,1.33692798510393,103.927091653438,Damai Secondary School
400,PARK VIEW PRIMARY SCHOOL,60,PASIR RIS DRIVE 1,PARK VIEW PRIMARY SCHOOL,60 PASIR RIS DRIVE 1 PARK VIEW PRIMARY SCHOOL SINGAPORE 519524,519524,39821.3162899343,39929.5384668726,1.37738069854249,103.939541695654,Park View Primary School
401,HUAMIN PRIMARY SCHOOL,21,YISHUN AVENUE 11,HUAMIN PRIMARY SCHOOL,21 YISHUN AVENUE 11 HUAMIN PRIMARY SCHOOL SINGAPORE 768857,768857,29215.4177919272,45412.9266837817,1.42697284512936,103.844240226564,Huamin Primary School
402,WHEE!CANOPUS STUDENT CARE @ HUAMIN PRIMARY SCHOOL,21,YISHUN AVENUE 11,WHEE!CANOPUS STUDENT CARE @ HUAMIN PRIMARY SCHOOL,21 YISHUN AVENUE 11 WHEE!CANOPUS STUDENT CARE @ HUAMIN PRIMARY SCHOOL SINGAPORE 768857,768857,29212.0174563685,45411.3805951737,1.42695886300879,103.844209671353,Huamin Primary School
403,JING SHAN PRIMARY SCHOOL,5,ANG MO KIO STREET 52,JING SHAN PRIMARY SCHOOL,5 ANG MO KIO STREET 52 JING SHAN PRIMARY SCHOOL SINGAPORE 569228,569228,30093.7277568905,39360.0670565329,1.37223290983498,103.852132214306,Jing Shan Primary School
404,CHUNG CHENG HIGH SCHOOL (YISHUN),11,YISHUN STREET 61,CHUNG CHENG HIGH SCHOOL (YISHUN),11 YISHUN STREET 61 CHUNG CHENG HIGH SCHOOL (YISHUN) SINGAPORE 768547,768547,28453.17758404,44556.321072707,1.41922603586175,103.837390782849,Chung Cheng High School (Yishun)
405,XISHAN PRIMARY SCHOOL,8,YISHUN STREET 21,XISHAN PRIMARY SCHOOL,8 YISHUN STREET 21 XISHAN PRIMARY SCHOOL SINGAPORE 768611,768611,28493.7422212623,46131.5536631271,1.43347186925064,103.837755319448,Xishan Primary School
406,WHITLEY SECONDARY SCHOOL,30,BISHAN STREET 24,WHITLEY SECONDARY SCHOOL,30 BISHAN STREET 24 WHITLEY SECONDARY SCHOOL SINGAPORE 579747,579747,29027.6163034551,37460.2926999275,1.35505208480649,103.842552378136,Whitley Secondary School
407,ANG MO KIO PRIMARY SCHOOL,20,ANG MO KIO AVENUE 3,ANG MO KIO PRIMARY SCHOOL,20 ANG MO KIO AVENUE 3 ANG MO KIO PRIMARY SCHOOL SINGAPORE 569920,569920,28702.4804675551,39038.1602696702,1.36932176584608,103.839630858752,Ang Mo Kio Primary School
408,ANDERSON SECONDARY SCHOOL,10,ANG MO KIO STREET 53,ANDERSON SECONDARY SCHOOL,10 ANG MO KIO STREET 53 ANDERSON SECONDARY SCHOOL SINGAPORE 569206,569206,30029.3897069497,39593.0597646087,1.37434001701177,103.851554107068,Anderson Secondary School
409,TECK GHEE PRIMARY SCHOOL,1,ANG MO KIO STREET 32,TECK GHEE PRIMARY SCHOOL,1 ANG MO KIO STREET 32 TECK GHEE PRIMARY SCHOOL SINGAPORE 569299,569299,29962.9602906732,38625.285902936,1.36558782075966,103.850957126982,Teck Ghee Primary School
410,CHONGFU SCHOOL,170,YISHUN AVENUE 6,CHONGFU SCHOOL,170 YISHUN AVENUE 6 CHONGFU SCHOOL SINGAPORE 768959,768959,28666.6613053558,46675.9986570273,1.43839562897006,103.839309173817,Chongfu School
411,SHG STUDENT CARE (CHONGFU SCHOOL),170,YISHUN AVENUE 6,SHG STUDENT CARE (CHONGFU SCHOOL),170 YISHUN AVENUE 6 SHG STUDENT CARE (CHONGFU SCHOOL) SINGAPORE 768959,768959,28640.1243954552,46683.3712114282,1.43846230429529,103.839070714229,Chongfu School
412,BUKIT VIEW PRIMARY SCHOOL,18,BUKIT BATOK STREET 21,BUKIT VIEW PRIMARY SCHOOL,18 BUKIT BATOK STREET 21 BUKIT VIEW PRIMARY SCHOOL SINGAPORE 659634,659634,19135.5884738322,36444.0823157039,1.34586054788695,103.75366641455,Bukit View Primary School
413,KRANJI PRIMARY SCHOOL,11,CHOA CHU KANG STREET 54,KRANJI PRIMARY SCHOOL,11 CHOA CHU KANG STREET 54 KRANJI PRIMARY SCHOOL SINGAPORE 689189,689189,18434.245239621,41718.5305804759,1.39356050497104,103.747362720939,Kranji Primary School
414,PALM VIEW PRIMARY SCHOOL,150,COMPASSVALE BOW,PALM VIEW PRIMARY SCHOOL,150 COMPASSVALE BOW PALM VIEW PRIMARY SCHOOL SINGAPORE 544822,544822,34458.6783197625,40635.7654705234,1.38376923022123,103.891354675017,Palm View Primary School
415,POI CHING SCHOOL,21,TAMPINES STREET 71,POI CHING SCHOOL,21 TAMPINES STREET 71 POI CHING SCHOOL SINGAPORE 529067,529067,39343.403805064,37747.9291978516,1.35765122315688,103.935246477199,Poi Ching School
416,PEI HWA PRESBYTERIAN PRIMARY SCHOOL,7,PEI WAH AVENUE,PEI HWA PRESBYTERIAN PRIMARY SCHOOL,7 PEI WAH AVENUE PEI HWA PRESBYTERIAN PRIMARY SCHOOL SINGAPORE 597610,597610,21632.898745548,35581.0631004851,1.33805634613048,103.776106448614,Pei Hwa Presbyterian Primary School
417,SAINT GABRIEL'S PRIMARY SCHOOL,220,LORONG CHUAN,SAINT GABRIEL'S PRIMARY SCHOOL,220 LORONG CHUAN SAINT GABRIEL'S PRIMARY SCHOOL SINGAPORE 556742,556742,31254.358949963,36843.2848763354,1.34947192653862,103.862561037707,St. Gabriel's Primary School
418,CEDAR GIRLS' SECONDARY SCHOOL,1,CEDAR AVENUE,CEDAR GIRLS' SECONDARY SCHOOL,1 CEDAR AVENUE CEDAR GIRLS' SECONDARY SCHOOL SINGAPORE 349692,349692,32519.9675315833,35105.7372267004,1.33375800216334,103.873933064886,Cedar Girls' Secondary School
419,HOUGANG SECONDARY SCHOOL,2,HOUGANG STREET 93,HOUGANG SECONDARY SCHOOL,2 HOUGANG STREET 93 HOUGANG SECONDARY SCHOOL SINGAPORE 534256,534256,33477.0592164416,39958.0252705514,1.37764019332164,103.882533963338,Hougang Secondary School
420,TEMASEK JUNIOR COLLEGE,22,BEDOK SOUTH ROAD,TEMASEK JUNIOR COLLEGE,22 BEDOK SOUTH ROAD TEMASEK JUNIOR COLLEGE SINGAPORE 469278,469278,39379.2891936116,33417.989127459,1.31849283027837,103.935567309385,Temasek Junior College
421,TAMPINES SECONDARY SCHOOL,252,TAMPINES STREET 12,TAMPINES SECONDARY SCHOOL,252 TAMPINES STREET 12 TAMPINES SECONDARY SCHOOL SINGAPORE 529427,529427,40346.96177861,36820.2178275529,1.34926094811197,103.944263709507,Tampines Secondary School
422,MAHA BODHI SCHOOL,10,UBI AVENUE 1,MAHA BODHI SCHOOL,10 UBI AVENUE 1 MAHA BODHI SCHOOL SINGAPORE 408931,408931,35565.4979411988,34521.1796176471,1.32847086658384,103.901298737314,Maha Bodhi School
423,MAHA BODHI SCHOOL,12,UBI AVENUE 1,MAHA BODHI SCHOOL,12 UBI AVENUE 1 MAHA BODHI SCHOOL SINGAPORE 408932,408932,35565.4979109308,34521.1795873791,1.32847086631012,103.901298737042,Maha Bodhi School
424,AFTER SCHOOL @ MAHA BODHI SCHOOL,10,UBI AVENUE 1,AFTER SCHOOL @ MAHA BODHI SCHOOL,10 UBI AVENUE 1 AFTER SCHOOL @ MAHA BODHI SCHOOL SINGAPORE 408931,408931,35566.4064952666,34533.273462953,1.32858023873554,103.901306904157,Maha Bodhi School
425,ANCHOR GREEN PRIMARY SCHOOL,31,ANCHORVALE DRIVE,ANCHOR GREEN PRIMARY SCHOOL,31 ANCHORVALE DRIVE ANCHOR GREEN PRIMARY SCHOOL SINGAPORE 544969,544969,33992.4459471293,41365.6329499111,1.39036998654612,103.887165375933,Anchor Green Primary School
426,WEST GROVE PRIMARY SCHOOL,1,JURONG WEST STREET 72,WEST GROVE PRIMARY SCHOOL,1 JURONG WEST STREET 72 WEST GROVE PRIMARY SCHOOL SINGAPORE 649223,649223,13083.6706046276,36335.8187624309,1.3448790560014,103.699286360581,West Grove Primary School
427,XINGHUA PRIMARY SCHOOL,45,HOUGANG AVENUE 1,XINGHUA PRIMARY SCHOOL,45 HOUGANG AVENUE 1 XINGHUA PRIMARY SCHOOL SINGAPORE 538882,538882,34360.61483486,37776.2619072273,1.35790893589535,103.890472887906,Xinghua Primary School
428,SPRINGDALE PRIMARY SCHOOL,71,ANCHORVALE LINK,SPRINGDALE PRIMARY SCHOOL,71 ANCHORVALE LINK SPRINGDALE PRIMARY SCHOOL SINGAPORE 544799,544799,34299.680692099,41841.1254489459,1.39467010299293,103.889926221247,Springdale Primary School
429,INNOVA PRIMARY SCHOOL,80,WOODLANDS DRIVE 17,INNOVA PRIMARY SCHOOL,80 WOODLANDS DRIVE 17 INNOVA PRIMARY SCHOOL SINGAPORE 737888,737888,23246.8971469188,45633.4723797198,1.42896700684852,103.790607539185,Innova Primary School
430,BIG HEART STUDENT CARE (BOON LAY GARDEN PRIMARY SCHOOL),20,BOON LAY DRIVE,BIG HEART STUDENT CARE (BOON LAY GARDEN PRIMARY SCHOOL),20 BOON LAY DRIVE BIG HEART STUDENT CARE (BOON LAY GARDEN PRIMARY SCHOOL) SINGAPORE 649930,649930,14594.0803428125,36110.2863859087,1.34284013791617,103.712858381937,Boon Lay Garden Primary School
431,BOON LAY GARDEN PRIMARY SCHOOL,20,BOON LAY DRIVE,BOON LAY GARDEN PRIMARY SCHOOL,20 BOON LAY DRIVE BOON LAY GARDEN PRIMARY SCHOOL SINGAPORE 649930,649930,14641.1027754331,36147.7026988044,1.34317853793318,103.713280889452,Boon Lay Garden Primary School
432,ANGLO-CHINESE SCHOOL (INDEPENDENT),121,DOVER ROAD,ANGLO-CHINESE SCHOOL (INDEPENDENT),121 DOVER ROAD ANGLO-CHINESE SCHOOL (INDEPENDENT) SINGAPORE 139650,139650,22106.5732889464,31782.5550005548,1.30370409257783,103.780363417671,Anglo-Chinese School (Independent)
433,HOUGANG PRIMARY SCHOOL,1,HOUGANG STREET 93,HOUGANG PRIMARY SCHOOL,1 HOUGANG STREET 93 HOUGANG PRIMARY SCHOOL SINGAPORE 534238,534238,33284.6782123018,39929.5216681417,1.37738245231461,103.880805274557,Hougang Primary School
434,WOODGROVE PRIMARY SCHOOL,2,WOODLANDS DRIVE 14,WOODGROVE PRIMARY SCHOOL,2 WOODLANDS DRIVE 14 WOODGROVE PRIMARY SCHOOL SINGAPORE 738079,738079,23246.5605064044,46090.8542425744,1.43310340168966,103.790604437613,Woodgrove Primary School
435,COMMIT LEARNING SCHOOLHOUSE @ WOODGROVE PRIMARY SCHOOL,2,WOODLANDS DRIVE 14,COMMIT LEARNING SCHOOLHOUSE @ WOODGROVE PRIMARY SCHOOL,2 WOODLANDS DRIVE 14 COMMIT LEARNING SCHOOLHOUSE @ WOODGROVE PRIMARY SCHOOL SINGAPORE 738079,738079,23204.9254116695,46050.2524968032,1.43273620725049,103.79023031392,Woodgrove Primary School
436,ZHENGHUA PRIMARY SCHOOL,9,FAJAR ROAD,ZHENGHUA PRIMARY SCHOOL,9 FAJAR ROAD ZHENGHUA PRIMARY SCHOOL SINGAPORE 679002,679002,20877.0395431835,40169.1169131137,1.37954887512229,103.769313521752,Zhenghua Primary School
437,BIG HEART STUDENT CARE (PRINCESS ELIZABETH PRIMARY SCHOOL),30,BUKIT BATOK WEST AVENUE 3,BIG HEART STUDENT CARE (PRINCESS ELIZABETH PRIMARY SCHOOL),30 BUKIT BATOK WEST AVENUE 3 BIG HEART STUDENT CARE (PRINCESS ELIZABETH PRIMARY SCHOOL) SINGAPORE 659163,659163,17694.7193374345,36812.396792436,1.34919098857585,103.740719208011,Princess Elizabeth Primary School
438,PRINCESS ELIZABETH PRIMARY SCHOOL,30,BUKIT BATOK WEST AVENUE 3,PRINCESS ELIZABETH PRIMARY SCHOOL,30 BUKIT BATOK WEST AVENUE 3 PRINCESS ELIZABETH PRIMARY SCHOOL SINGAPORE 659163,659163,17728.1546840398,36813.7803722396,1.349203512653,103.74101964471,Princess Elizabeth Primary School
439,NUS HIGH SCHOOL OF MATHEMATICS AND SCIENCE,20,CLEMENTI AVENUE 1,NUS HIGH SCHOOL OF MATHEMATICS AND SCIENCE,20 CLEMENTI AVENUE 1 NUS HIGH SCHOOL OF MATHEMATICS AND SCIENCE SINGAPORE 129957,129957,20882.5747099025,32098.8705946617,1.30656448055686,103.769365156929,NUS High School of Mathematics and Science
440,NUS HIGH SCHOOL OF MATHEMATICS AND SCIENCE,30,CLEMENTI AVENUE 1,NUS HIGH SCHOOL OF MATHEMATICS AND SCIENCE,30 CLEMENTI AVENUE 1 NUS HIGH SCHOOL OF MATHEMATICS AND SCIENCE SINGAPORE 129958,129958,20969.725285151,32053.7735084854,1.30615665859431,103.770148255807,NUS High School of Mathematics and Science
441,PASIR RIS CREST SECONDARY SCHOOL,11,PASIR RIS STREET 41,PASIR RIS CREST SECONDARY SCHOOL,11 PASIR RIS STREET 41 PASIR RIS CREST SECONDARY SCHOOL SINGAPORE 518934,518934,42067.8542885976,39427.6259528883,1.37284060102246,103.959728202919,Pasir Ris Secondary School
442,PASIR RIS SECONDARY SCHOOL,390,TAMPINES STREET 21,PASIR RIS SECONDARY SCHOOL,390 TAMPINES STREET 21 PASIR RIS SECONDARY SCHOOL SINGAPORE 529400,529400,40869.8736143373,37369.4000635836,1.35422732653396,103.948962626204,Pasir Ris Secondary School
443,FORMER TAO NAN SCHOOL,39,ARMENIAN STREET,FORMER TAO NAN SCHOOL,39 ARMENIAN STREET FORMER TAO NAN SCHOOL SINGAPORE 179941,179941,29748.116507777,30746.1923441123,1.2943321052493,103.849026157822,Tao Nan School
444,TAO NAN SCHOOL,49,MARINE CRESCENT,TAO NAN SCHOOL,49 MARINE CRESCENT TAO NAN SCHOOL SINGAPORE 449761,449761,36706.7907984024,31957.4686842412,1.30528528687321,103.911553152326,Tao Nan School
445,SENG KANG PRIMARY SCHOOL,21,COMPASSVALE WALK,SENG KANG PRIMARY SCHOOL,21 COMPASSVALE WALK SENG KANG PRIMARY SCHOOL SINGAPORE 545166,545166,35394.8580362787,41269.1828696113,1.38949740422462,103.899767112047,Seng Kang Primary School
